{
"type": "FeatureCollection",
"name": "A_Topo_mosaic_streamlines_lonlat",
"crs": { "type": "name", "properties": { "name": "urn:ogc:def:crs:OGC:1.3:CRS84" } },
"features": [
{ "type": "Feature", "properties": { }, "geometry": { "type": "LineString", "coordinates": [ [ -113.12577715553482, 48.929361493989767 ], [ -113.125777537308423, 48.929370483502034 ], [ -113.125764275834058, 48.929379724611223 ], [ -113.125764657605586, 48.92938871412354 ], [ -113.125765039377328, 48.929397703635843 ], [ -113.125751777893541, 48.929406944743711 ], [ -113.125752159663207, 48.929415934256049 ], [ -113.125738898172244, 48.929425175362496 ], [ -113.125725636676407, 48.929434416467487 ], [ -113.125712375175667, 48.929443657571014 ], [ -113.125699113670024, 48.929452898673063 ], [ -113.125685852159506, 48.929462139773655 ], [ -113.125672590644072, 48.929471380872769 ], [ -113.125659329123749, 48.929480621970434 ], [ -113.125646067598524, 48.929489863066621 ], [ -113.125632806068424, 48.929499104161344 ], [ -113.125619544533421, 48.929508345254604 ], [ -113.125606282993502, 48.929517586346392 ], [ -113.125593021448708, 48.929526827436703 ], [ -113.125579759899011, 48.929536068525557 ], [ -113.125566498344426, 48.929545309612948 ], [ -113.125553236784924, 48.929554550698874 ], [ -113.125539975220548, 48.929563791783337 ], [ -113.125526713651269, 48.92957303286633 ], [ -113.125513452077101, 48.929582273947844 ], [ -113.12550019049803, 48.929591515027901 ], [ -113.125486928914071, 48.929600756106495 ], [ -113.125473667325224, 48.929609997183611 ], [ -113.125460024011488, 48.92961024874549 ], [ -113.125446762415081, 48.929619489819622 ], [ -113.125433119098517, 48.92961974137836 ], [ -113.125419857494592, 48.929628982449479 ], [ -113.125406595885778, 48.929638223519142 ], [ -113.125392952563757, 48.929638475073205 ], [ -113.125379309241538, 48.929638726625654 ], [ -113.125366047622535, 48.929647967690769 ], [ -113.125352785998658, 48.929657208754449 ], [ -113.125339524369878, 48.929666449816644 ], [ -113.125325881039558, 48.929666701362876 ], [ -113.125312619403246, 48.92967594242208 ], [ -113.125299357762032, 48.929685183479805 ], [ -113.125286096115929, 48.929694424536073 ], [ -113.125272834464923, 48.929703665590878 ], [ -113.125259572809028, 48.929712906644191 ], [ -113.125246311148231, 48.929722147696069 ], [ -113.125233049482546, 48.929731388746475 ], [ -113.12523343116338, 48.929740378261407 ], [ -113.125220169490547, 48.929749619310407 ], [ -113.125220551169306, 48.929758608825395 ], [ -113.12520728948931, 48.929767849872981 ], [ -113.125207671165995, 48.929776839388019 ], [ -113.125208052842893, 48.929785828903036 ], [ -113.125194791153476, 48.929795069949307 ], [ -113.125195172828299, 48.929804059464374 ], [ -113.125181911131719, 48.929813300509231 ], [ -113.125168649430279, 48.929822541552603 ], [ -113.125155387723908, 48.929831782594533 ], [ -113.125142126012662, 48.929841023634992 ], [ -113.125142507678632, 48.929850013150308 ], [ -113.125129245960238, 48.929859254189367 ], [ -113.125129627624119, 48.929868243704725 ], [ -113.125130009288213, 48.929877233220068 ], [ -113.125116747560398, 48.929886474257792 ], [ -113.125117129222417, 48.929895463773185 ], [ -113.125117510884621, 48.929904453288565 ], [ -113.12511789254701, 48.929913442803922 ], [ -113.125118274209626, 48.929922432319266 ], [ -113.125118655872384, 48.929931421834596 ], [ -113.125132680942144, 48.929940159827026 ], [ -113.125133062607745, 48.929949149342242 ], [ -113.12513344427353, 48.929958138857437 ], [ -113.12514746935345, 48.929966876847885 ], [ -113.125147851022064, 48.929975866362966 ], [ -113.125148232690876, 48.929984855878047 ], [ -113.125148614359873, 48.929993845393099 ], [ -113.125148996029054, 48.93000283490813 ], [ -113.125149377698435, 48.93001182442314 ], [ -113.125163402796431, 48.930020562411308 ], [ -113.125177427899331, 48.930029300397692 ], [ -113.125191453007119, 48.930038038382271 ], [ -113.1251918346846, 48.93004702789699 ], [ -113.125192216362265, 48.930056017411665 ], [ -113.12519259804013, 48.930065006926348 ], [ -113.125206623160707, 48.930073744908853 ], [ -113.125220648286216, 48.930082482889553 ], [ -113.125221029969524, 48.930091472404015 ], [ -113.12523505510255, 48.930100210382847 ], [ -113.125221793336735, 48.930109451432905 ], [ -113.125222175020625, 48.930118440947318 ], [ -113.125222556704699, 48.93012743046171 ], [ -113.125222938388973, 48.930136419976094 ], [ -113.125209676611476, 48.930145661024888 ], [ -113.125196414829091, 48.930154902072204 ], [ -113.12519679650903, 48.930163891586702 ], [ -113.125183534719497, 48.930173132632618 ], [ -113.125183916397361, 48.930182122147158 ], [ -113.125170654600666, 48.930191363191675 ], [ -113.125157011125722, 48.930191614720052 ], [ -113.125143367650594, 48.930191866246808 ], [ -113.125129724175267, 48.930192117771966 ], [ -113.125116080699755, 48.930192369295497 ], [ -113.125102437224072, 48.930192620817415 ] ] } },
{ "type": "Feature", "properties": { }, "geometry": { "type": "LineString", "coordinates": [ [ -113.12529592254144, 48.929604277847524 ], [ -113.125309565855019, 48.929604026305071 ] ] } },
{ "type": "Feature", "properties": { }, "geometry": { "type": "LineString", "coordinates": [ [ -113.125858633202483, 48.92935099486342 ], [ -113.125871894651624, 48.929341753743699 ], [ -113.125885537888493, 48.929341502134186 ], [ -113.125899181125192, 48.929341250523052 ], [ -113.125912824361706, 48.929340998910313 ], [ -113.125926467598006, 48.929340747295946 ], [ -113.125939729031714, 48.929331506168637 ], [ -113.125939347229476, 48.929322516657273 ], [ -113.125952608656036, 48.929313275528564 ], [ -113.125965870077692, 48.929304034398385 ], [ -113.125979131494432, 48.929294793266735 ], [ -113.125992774717574, 48.929294541644722 ], [ -113.126006417940516, 48.929294290021097 ], [ -113.126020061163246, 48.929294038395852 ], [ -113.12603332256721, 48.929284797258141 ], [ -113.126046583966257, 48.929275556118967 ], [ -113.12605984536043, 48.929266314978314 ], [ -113.126073106749701, 48.929257073836219 ], [ -113.126072724924498, 48.929248084325536 ], [ -113.126085986306606, 48.929238843182027 ], [ -113.126099629513533, 48.929238591547602 ], [ -113.126112890888123, 48.929229350401087 ], [ -113.126126152257797, 48.929220109253123 ], [ -113.126139413622596, 48.929210868103681 ], [ -113.126152674982478, 48.929201626952768 ], [ -113.126166318178662, 48.929201375310605 ], [ -113.12617996137466, 48.929201123666815 ], [ -113.126193604570474, 48.929200872021426 ], [ -113.126206865917567, 48.929191630864466 ], [ -113.126220127259742, 48.929182389706028 ], [ -113.126233388597058, 48.92917314854612 ], [ -113.126246649929442, 48.929163907384755 ], [ -113.126259911256952, 48.929154666221926 ], [ -113.126273172579559, 48.929145425057627 ], [ -113.126286815759357, 48.929145173401423 ], [ -113.126300077074447, 48.929135932234132 ], [ -113.126313720251403, 48.929135680574781 ], [ -113.126326981558947, 48.929126439404499 ], [ -113.126340242861602, 48.929117198232724 ], [ -113.126353504159354, 48.9291079570595 ], [ -113.12636714732821, 48.92910770539396 ], [ -113.126380790496896, 48.9291074537268 ], [ -113.126394051784487, 48.929098212549036 ], [ -113.126407313067162, 48.929088971369801 ], [ -113.126420574344962, 48.929079730189116 ], [ -113.12643383561786, 48.929070489006953 ], [ -113.126447096885855, 48.929061247823327 ], [ -113.126460358148961, 48.929052006638237 ], [ -113.126474001301617, 48.92905175496027 ], [ -113.126487644454116, 48.929051503280711 ], [ -113.126501669505942, 48.92906024110794 ], [ -113.126515312660487, 48.929059989425056 ], [ -113.126528573910406, 48.929050748232306 ], [ -113.126542217062138, 48.929050496546282 ], [ -113.126555860213657, 48.929050244858644 ], [ -113.126569121453414, 48.929041003661368 ], [ -113.126582382688269, 48.929031762462621 ], [ -113.126595643918222, 48.929022521262418 ], [ -113.126608905143286, 48.929013280060737 ], [ -113.126622166363461, 48.929004038857592 ], [ -113.126635427578734, 48.928994797652983 ], [ -113.126648688789118, 48.928985556446904 ], [ -113.126661949994599, 48.92897631523936 ], [ -113.126661568067391, 48.928967325731762 ], [ -113.126674829265724, 48.928958084522819 ], [ -113.126674447336427, 48.92894909501527 ], [ -113.126687708527612, 48.92893985380492 ], [ -113.126687326596283, 48.928930864297421 ], [ -113.126700587780292, 48.928921623085671 ], [ -113.126713848959412, 48.928912381872458 ], [ -113.126713467023734, 48.928903392365079 ], [ -113.126713085088269, 48.928894402857672 ], [ -113.126712703152961, 48.928885413350258 ], [ -113.126712321217852, 48.92887642384283 ], [ -113.126698296182639, 48.928867686040739 ], [ -113.126684653082151, 48.928867937744499 ], [ -113.126671009981465, 48.928868189446625 ], [ -113.126656984955659, 48.928859451639362 ], [ -113.126642959934742, 48.928850713830307 ], [ -113.12662931683839, 48.928850965527445 ], [ -113.126615291824635, 48.928842227714902 ], [ -113.126601266815769, 48.928833489900562 ], [ -113.126587623723736, 48.928833741592697 ], [ -113.12657398063152, 48.928833993283234 ], [ -113.126560337539104, 48.928834244972137 ], [ -113.126546694446532, 48.928834496659434 ], [ -113.126533051353732, 48.928834748345118 ], [ -113.126519790160643, 48.928843989537839 ], [ -113.126520172060722, 48.928852979046468 ], [ -113.126506910860485, 48.928862220237804 ], [ -113.126493649655359, 48.928871461427661 ], [ -113.126480006552015, 48.92887171310722 ], [ -113.126466363448486, 48.928871964785152 ], [ -113.126453102233185, 48.928881205970491 ], [ -113.126439459126843, 48.928881457645282 ], [ -113.126425816020287, 48.928881709318475 ], [ -113.126412172913561, 48.928881960990054 ], [ -113.12639852980665, 48.928882212660021 ], [ -113.12638488669954, 48.92888246432836 ], [ -113.126371243592246, 48.928882715995108 ], [ -113.126357600484766, 48.928882967660229 ], [ -113.126343957377074, 48.928883219323744 ], [ -113.126330314269211, 48.928883470985646 ], [ -113.126316671161163, 48.928883722645942 ], [ -113.126303028052916, 48.928883974304618 ], [ -113.126289384944471, 48.928884225961674 ], [ -113.12627574183584, 48.928884477617125 ], [ -113.12626209872704, 48.928884729270969 ], [ -113.12624845561804, 48.928884980923179 ], [ -113.126234812508841, 48.928885232573805 ], [ -113.126221169399457, 48.928885484222803 ], [ -113.126207144445559, 48.928876746359727 ], [ -113.126193501338236, 48.928876998005428 ], [ -113.126179858230728, 48.928877249649503 ], [ -113.126166215123035, 48.928877501291979 ], [ -113.126152572015144, 48.92887775293282 ], [ -113.126138928907082, 48.928878004572077 ], [ -113.126125285798821, 48.9288782562097 ], [ -113.126111260863354, 48.928869518334672 ], [ -113.126097235932775, 48.92886078045786 ], [ -113.126083592828834, 48.928861032090481 ], [ -113.126069567905404, 48.928852294210174 ], [ -113.126055542986862, 48.928843556328097 ], [ -113.126041518073237, 48.928834818444209 ], [ -113.126027493164486, 48.928826080558544 ], [ -113.126027111353295, 48.928817091046902 ], [ -113.126026729542275, 48.928808101535246 ], [ -113.12602634773144, 48.928799112023604 ], [ -113.1260396090059, 48.928789870886391 ], [ -113.126052870275501, 48.92878062974772 ], [ -113.12606651335777, 48.92878037811905 ], [ -113.126079774619811, 48.928771136977382 ], [ -113.126093417699266, 48.928770885345557 ], [ -113.126106678953775, 48.928761644200897 ], [ -113.126106297129226, 48.928752654689639 ], [ -113.126105915304834, 48.928743665178374 ], [ -113.126105533480668, 48.928734675667087 ], [ -113.126105151656645, 48.928725686155786 ], [ -113.126118412897227, 48.928716445009911 ], [ -113.126118031071158, 48.928707455498653 ], [ -113.126131292304592, 48.928698214351371 ], [ -113.126144553533138, 48.928688973202625 ], [ -113.126144171702734, 48.928679983691481 ], [ -113.126143789872543, 48.928670994180322 ], [ -113.126157051091667, 48.928661753030241 ], [ -113.126170312305888, 48.928652511878688 ], [ -113.126183573515206, 48.928643270725694 ], [ -113.12619683471965, 48.928634029571207 ], [ -113.12619645288062, 48.92862504006029 ], [ -113.126209714077874, 48.92861579890441 ], [ -113.126223357113844, 48.928615547257849 ], [ -113.126237000149601, 48.928615295609674 ], [ -113.126250261336722, 48.928606054449261 ], [ -113.126263522518926, 48.928596813287399 ], [ -113.126276783696255, 48.928587572124052 ], [ -113.126276401843469, 48.92857858261354 ], [ -113.126289663013637, 48.928569341448799 ], [ -113.126302924178916, 48.928560100282574 ], [ -113.126316567198856, 48.92855984862522 ], [ -113.126329828356589, 48.928550607456017 ], [ -113.126343089509433, 48.92854136628533 ], [ -113.126356732523917, 48.928541114623293 ], [ -113.126370375538201, 48.928540862959657 ], [ -113.126383636680885, 48.928531621784451 ], [ -113.126396897818665, 48.928522380607774 ], [ -113.126396515945174, 48.928513391097866 ], [ -113.126396134071882, 48.928504401587965 ], [ -113.126409395200255, 48.928495160409959 ], [ -113.126409013324874, 48.928486170900101 ], [ -113.126422274446085, 48.928476929720688 ], [ -113.126435535562422, 48.928467688539811 ], [ -113.126448796673841, 48.928458447357471 ], [ -113.126448414791881, 48.92844945784779 ], [ -113.126461675896167, 48.928440216664043 ], [ -113.126461294012131, 48.928431227154412 ], [ -113.126474555109255, 48.928421985969251 ], [ -113.12648819809003, 48.928421734292144 ], [ -113.126501459179607, 48.928412493103991 ], [ -113.126515102157541, 48.928412241423743 ], [ -113.126528363239601, 48.928403000232606 ], [ -113.126542006214706, 48.928402748549203 ], [ -113.12655526728922, 48.928393507355068 ], [ -113.12656852835886, 48.928384266159455 ], [ -113.126581789423597, 48.928375024962392 ], [ -113.126595432390602, 48.928374773272786 ], [ -113.126609075357422, 48.928374521581574 ], [ -113.126622336411984, 48.928365280379964 ], [ -113.126635979375976, 48.928365028685612 ], [ -113.126649622339784, 48.928364776989632 ], [ -113.126662883384171, 48.928355535783503 ], [ -113.12667652634515, 48.928355284084383 ], [ -113.126690169305945, 48.928355032383642 ], [ -113.126703430340172, 48.928345791173001 ], [ -113.126717073298124, 48.928345539469127 ], [ -113.126730716255892, 48.928345287763641 ], [ -113.126743977279958, 48.928336046548452 ], [ -113.126757620234898, 48.928335794839811 ], [ -113.126771263189653, 48.928335543129577 ], [ -113.126784906144223, 48.928335291417717 ], [ -113.126798549098609, 48.928335039704251 ], [ -113.126812573998549, 48.928343777496863 ], [ -113.126825835006784, 48.92833453627248 ], [ -113.12683909601013, 48.928325295046641 ], [ -113.126852738961304, 48.928325043326794 ], [ -113.126866381912279, 48.928324791605355 ], [ -113.12688002486307, 48.928324539882283 ], [ -113.126893667813661, 48.928324288157619 ], [ -113.126907310764082, 48.92832403643132 ], [ -113.126920953714318, 48.928323784703423 ], [ -113.126934214696931, 48.928314543466925 ], [ -113.126947857644325, 48.92831429173588 ], [ -113.12696111861942, 48.928305050496391 ], [ -113.126974761563986, 48.928304798762198 ], [ -113.126988404508367, 48.928304547026386 ], [ -113.127002047452564, 48.928304295288974 ], [ -113.127015690396576, 48.928304043549964 ], [ -113.127029333340374, 48.928303791809327 ], [ -113.127042976284017, 48.928303540067063 ], [ -113.127056237238364, 48.928294298816901 ], [ -113.127069880179164, 48.928294047071518 ], [ -113.127083141126008, 48.928284805818372 ], [ -113.127096402067949, 48.928275564563748 ], [ -113.127109663005001, 48.928266323307668 ], [ -113.127122923937151, 48.928257082050116 ], [ -113.127136566867208, 48.928256830296981 ], [ -113.127149827791825, 48.928247589036445 ], [ -113.127163470719054, 48.928247337280162 ], [ -113.127176731636155, 48.928238096016614 ], [ -113.127190374560541, 48.92823784425719 ], [ -113.127204017484772, 48.92823759249616 ], [ -113.127217660408789, 48.928237340733517 ], [ -113.127231303332636, 48.928237088969247 ], [ -113.127244946256283, 48.928236837203386 ], [ -113.127258589179746, 48.928236585435897 ], [ -113.127272232102996, 48.928236333666796 ], [ -113.127285492996748, 48.928227092391069 ], [ -113.127299135917184, 48.928226840618834 ], [ -113.12731277883745, 48.928226588844979 ], [ -113.127326421757502, 48.928226337069503 ], [ -113.127340064677369, 48.92822608529243 ], [ -113.127353707597067, 48.92822583351375 ], [ -113.127367732560586, 48.928234571237972 ], [ -113.127381375482344, 48.928234319455967 ], [ -113.127395018403917, 48.928234067672349 ], [ -113.12740866132529, 48.928233815887133 ], [ -113.12742230424648, 48.928233564100289 ], [ -113.127435947167456, 48.928233312311846 ], [ -113.127449972147176, 48.928242050025808 ], [ -113.127463615070241, 48.928241798234062 ], [ -113.127477257993107, 48.928241546440695 ], [ -113.127490900915802, 48.928241294645709 ], [ -113.127504543838299, 48.928241042849123 ], [ -113.127518186760597, 48.928240791050911 ], [ -113.127531829682724, 48.928240539251107 ], [ -113.127545472604652, 48.928240287449661 ], [ -113.127559115526381, 48.928240035646617 ], [ -113.127572758447926, 48.92823978384196 ], [ -113.127586401369285, 48.928239532035697 ], [ -113.12760004429046, 48.928239280227814 ], [ -113.127613687211436, 48.928239028418311 ], [ -113.127627330132214, 48.928238776607209 ], [ -113.12764097305282, 48.92823852479448 ], [ -113.127654615973228, 48.928238272980153 ], [ -113.127668258893451, 48.928238021164205 ], [ -113.127681901813489, 48.928237769346651 ], [ -113.127695926836481, 48.928246507030025 ], [ -113.127709569758579, 48.928246255209153 ], [ -113.127723212680493, 48.928246003386683 ], [ -113.127736855602208, 48.928245751562585 ], [ -113.127750498523753, 48.928245499736889 ], [ -113.127764141445084, 48.928245247909572 ], [ -113.127777784366231, 48.928244996080643 ], [ -113.127791427287207, 48.928244744250108 ], [ -113.12780507020797, 48.928244492417953 ], [ -113.127818331003368, 48.928235251082377 ], [ -113.127831973921317, 48.928234999247074 ], [ -113.127845616839068, 48.928234747410166 ], [ -113.127858877624305, 48.928225506070056 ], [ -113.127858495492148, 48.928216516568448 ], [ -113.127858113360219, 48.928207527066824 ], [ -113.127871374136035, 48.928198285725365 ], [ -113.127885017043425, 48.928198033883959 ], [ -113.127898659950645, 48.928197782040911 ], [ -113.127911920716272, 48.92818854069494 ], [ -113.127925181477025, 48.928179299347491 ], [ -113.127924799333599, 48.928170309846223 ], [ -113.127938060087203, 48.92816106849736 ], [ -113.127951702983864, 48.928160816648209 ], [ -113.127964963729937, 48.928151575296376 ], [ -113.12797860662377, 48.928151323444062 ], [ -113.127992249517419, 48.928151071590143 ], [ -113.128005510253317, 48.928141830233777 ], [ -113.128019153144123, 48.92814157837671 ], [ -113.128032796034759, 48.928141326518038 ], [ -113.128046438925196, 48.928141074657752 ], [ -113.128060463982791, 48.928149812296375 ], [ -113.128074106875289, 48.928149560432793 ], [ -113.128088131940046, 48.928158298067906 ], [ -113.128102157009678, 48.928167035701243 ], [ -113.128116182084199, 48.928175773332804 ], [ -113.128130207163636, 48.928184510962559 ], [ -113.128143850064987, 48.928184259090571 ], [ -113.128157875151572, 48.928192996716852 ], [ -113.128158257337176, 48.928201986216692 ], [ -113.128172282431294, 48.92821072384109 ], [ -113.128186307530314, 48.928219461463669 ], [ -113.128186689721389, 48.928228450963303 ], [ -113.128200714827926, 48.928237188584006 ], [ -113.128214357743019, 48.92823693670347 ], [ -113.128228382856705, 48.928245674320699 ], [ -113.128242407975293, 48.928254411936109 ], [ -113.12825643309877, 48.928263149549736 ], [ -113.128270458227163, 48.928271887161578 ], [ -113.12827084043407, 48.928280876660644 ], [ -113.12827122264116, 48.928289866159659 ], [ -113.128271604848436, 48.928298855658682 ], [ -113.12828562998962, 48.928307593268435 ], [ -113.128286012199723, 48.928316582767337 ], [ -113.128286394410026, 48.928325572266218 ], [ -113.12830041956137, 48.928334309874003 ], [ -113.128300801774515, 48.92834329937277 ], [ -113.128314826933405, 48.928352036978652 ], [ -113.128328852097184, 48.928360774582735 ], [ -113.128315591365478, 48.928370015975936 ], [ -113.128315973581806, 48.928379005474575 ], [ -113.128316355798333, 48.928387994973178 ], [ -113.12831673801503, 48.928396984471782 ], [ -113.128317120231927, 48.928405973970349 ], [ -113.128317502449008, 48.928414963468917 ], [ -113.128317884666302, 48.928423952967457 ], [ -113.128331909851184, 48.928432690570766 ], [ -113.128332292071278, 48.928441680069191 ], [ -113.128332674291585, 48.928450669567603 ], [ -113.128333056512062, 48.928459659066 ], [ -113.128347081709748, 48.92846839666722 ], [ -113.128347463933068, 48.928477386165497 ], [ -113.128347846156544, 48.928486375663773 ], [ -113.128348228380247, 48.928495365162021 ], [ -113.128348610604121, 48.928504354660248 ], [ -113.128348992828194, 48.928513344158475 ], [ -113.128349375052437, 48.928522333656659 ], [ -113.128363400270857, 48.928531071255506 ], [ -113.128377425494151, 48.928539808852548 ], [ -113.128391450722361, 48.928548546447814 ], [ -113.128391832954719, 48.9285575359457 ], [ -113.128392215187262, 48.928566525443578 ], [ -113.128406240425647, 48.928575263036841 ], [ -113.128420265668908, 48.928584000628312 ], [ -113.128434290917056, 48.928592738218001 ], [ -113.128448316170108, 48.928601475805898 ], [ -113.128461959182331, 48.928601223894617 ], [ -113.128475984442517, 48.928609961479026 ], [ -113.128476366690904, 48.928618950976315 ], [ -113.128490391958636, 48.928627688558834 ], [ -113.128504417231269, 48.928636426139555 ], [ -113.128518060252517, 48.928636174221502 ], [ -113.128532085532314, 48.928644911798742 ], [ -113.128546110816998, 48.928653649374191 ], [ -113.128560136106557, 48.928662386947856 ], [ -113.128574161401048, 48.92867112451971 ], [ -113.128587804431135, 48.928670872593266 ], [ -113.128601829732759, 48.928679610161637 ], [ -113.128602212004679, 48.928688599658066 ], [ -113.128616237313835, 48.928697337224563 ], [ -113.128629880350701, 48.928697085293031 ], [ -113.128643523387368, 48.928696833359879 ], [ -113.128657548705945, 48.928705570921196 ], [ -113.128671191744687, 48.928705318984747 ], [ -113.128685217070398, 48.928714056542582 ], [ -113.128699242401026, 48.928722794098604 ], [ -113.128713267736543, 48.928731531652844 ], [ -113.128726910781864, 48.928731279709694 ], [ -113.128740553827001, 48.928731027764947 ], [ -113.128754196871952, 48.928730775818565 ], [ -113.128767839916705, 48.928730523870591 ], [ -113.128781482961273, 48.92873027192099 ], [ -113.128795126005656, 48.928730019969791 ], [ -113.12880876904984, 48.928729768016964 ], [ -113.128822412093839, 48.928729516062539 ], [ -113.128836437452307, 48.928738253601431 ], [ -113.128836819767173, 48.92874724309636 ], [ -113.128837202082224, 48.928756232591255 ], [ -113.128837584397445, 48.928765222086163 ], [ -113.128837966712865, 48.928774211581036 ], [ -113.128838349028499, 48.928783201075895 ], [ -113.128825088283349, 48.92879244252736 ], [ -113.128825470596908, 48.928801432022254 ], [ -113.128812209844611, 48.928810673472313 ], [ -113.128812592156066, 48.928819662967278 ], [ -113.128812974467735, 48.928828652462208 ], [ -113.128813356779602, 48.928837641957131 ], [ -113.128800096015638, 48.928846883405924 ], [ -113.128786835246785, 48.928856124853233 ], [ -113.128800860635408, 48.928864862395848 ], [ -113.12880124294557, 48.928873851890792 ], [ -113.128787982169939, 48.9288830933383 ], [ -113.128788364478041, 48.928892082833286 ], [ -113.128788746786327, 48.928901072328266 ], [ -113.128789129094798, 48.92891006182321 ] ] } },
{ "type": "Feature", "properties": { }, "geometry": { "type": "LineString", "coordinates": [ [ -113.125050628592959, 48.929293920746908 ], [ -113.125050246950977, 48.929284931230164 ], [ -113.12504986530918, 48.929275941713414 ], [ -113.125049483667567, 48.929266952196642 ] ] } },
{ "type": "Feature", "properties": { }, "geometry": { "type": "LineString", "coordinates": [ [ -113.129749756162312, 48.928703389888248 ], [ -113.129750138640773, 48.928712379377757 ], [ -113.129750521119433, 48.928721368867244 ], [ -113.129750903598278, 48.928730358356724 ], [ -113.129751286077308, 48.928739347846175 ], [ -113.129751668556551, 48.92874833733562 ], [ -113.129738407992619, 48.928757578889545 ], [ -113.129724764949088, 48.928757830952428 ], [ -113.129711121905373, 48.928758083013712 ], [ -113.12969786133128, 48.928767324563097 ], [ -113.129698243801272, 48.928776314052811 ], [ -113.129698626271477, 48.928785303542519 ], [ -113.129685365687976, 48.928794545090575 ], [ -113.129685748156106, 48.928803534580325 ], [ -113.129672487565443, 48.928812776126989 ], [ -113.129658844506281, 48.928813028182304 ], [ -113.129645583908086, 48.928822269725956 ], [ -113.12963194084611, 48.92882252177813 ], [ -113.129618680240384, 48.92883176331879 ], [ -113.129605419629769, 48.928841004857986 ], [ -113.129592159014251, 48.928850246395726 ], [ -113.129578515944175, 48.928850498441683 ], [ -113.129565255321111, 48.92885973997641 ], [ -113.129551994693159, 48.92886898150968 ], [ -113.129538351617626, 48.928869233550969 ], [ -113.129525090982142, 48.928878475081241 ], [ -113.129511447903766, 48.928878727119383 ], [ -113.129497804825178, 48.928878979155911 ], [ -113.129484544179547, 48.92888822068165 ], [ -113.129471283529, 48.928897462205924 ], [ -113.129458022873578, 48.928906703728735 ], [ -113.129458405302358, 48.928915693219679 ], [ -113.129445144639789, 48.928924934741083 ], [ -113.129431883972302, 48.928934176261031 ], [ -113.129418623299927, 48.928943417779493 ], [ -113.129405362622649, 48.928952659296506 ], [ -113.129392101940482, 48.928961900812041 ], [ -113.129378458838175, 48.928962152834792 ], [ -113.129365198148463, 48.928971394347336 ], [ -113.129351555043328, 48.928971646366946 ], [ -113.129338294346098, 48.928980887876492 ], [ -113.129325033643966, 48.928990129384566 ], [ -113.129311390533374, 48.928990381399501 ], [ -113.129297747422598, 48.928990633412816 ], [ -113.12928448671029, 48.928999874916357 ], [ -113.129270843596672, 48.929000126926539 ], [ -113.129257582876846, 48.929009368427103 ], [ -113.129244322152104, 48.929018609926175 ], [ -113.129231061422487, 48.929027851423797 ], [ -113.129217800687968, 48.929037092919955 ], [ -113.129204157563606, 48.929037344922385 ], [ -113.129190514439074, 48.929037596923209 ], [ -113.129176871314328, 48.929037848922427 ], [ -113.12916284581199, 48.929029111427518 ], [ -113.129149585064283, 48.929038352916002 ], [ -113.129135941938998, 48.929038604910382 ], [ -113.129122681183745, 48.929047846395889 ], [ -113.129109038055617, 48.929048098387121 ], [ -113.12909539492729, 48.929048350376725 ], [ -113.129082134161891, 48.929057591857706 ], [ -113.129068491030736, 48.92905784384417 ], [ -113.129054847899397, 48.929058095829028 ], [ -113.129041204767873, 48.929058347812273 ], [ -113.129027561636164, 48.929058599793912 ], [ -113.129014300855303, 48.92906784126729 ], [ -113.129000657720752, 48.929068093245782 ], [ -113.128987014586031, 48.92906834522266 ], [ -113.128973753795009, 48.929077586691506 ], [ -113.128960110657445, 48.929077838665236 ], [ -113.128946849858877, 48.92908708013109 ], [ -113.1289332067185, 48.929087332101673 ], [ -113.128919945912401, 48.929096573564536 ], [ -113.128906302769195, 48.929096825531978 ], [ -113.128893041955578, 48.929106066991828 ], [ -113.128879781137073, 48.929115308450235 ], [ -113.128866137988382, 48.929115560413003 ], [ -113.128852877162345, 48.92912480186839 ], [ -113.128839234010826, 48.929125053828024 ], [ -113.128825590859137, 48.92912530578603 ], [ -113.128811947707248, 48.929125557742431 ], [ -113.128798686868379, 48.929134799191758 ], [ -113.128784661402904, 48.9291260616504 ], [ -113.128771018250461, 48.929126313601962 ], [ -113.12875699279212, 48.929117576057095 ], [ -113.128742967338681, 48.929108838510466 ], [ -113.128742585035823, 48.929099849015536 ], [ -113.12874220273315, 48.929090859520599 ], [ -113.128741820430662, 48.929081870025648 ], [ -113.128727794990041, 48.929073132476901 ], [ -113.128713769554309, 48.929064394926378 ], [ -113.128713387257307, 48.929055405431221 ], [ -113.128699361829106, 48.929046667878815 ], [ -113.128698979534917, 48.929037678383537 ], [ -113.128698597240913, 48.929028688888238 ], [ -113.128711858071128, 48.929019447450408 ], [ -113.128725118896455, 48.929010206011114 ], [ -113.128738762017647, 48.929009954065435 ], [ -113.12875240513867, 48.929009702118158 ], [ -113.128765665953821, 48.929000460674324 ], [ -113.128778926764099, 48.928991219229026 ], [ -113.12879256987965, 48.928990967277073 ] ] } },
{ "type": "Feature", "properties": { }, "geometry": { "type": "LineString", "coordinates": [ [ -113.125264340106625, 48.929182022172036 ], [ -113.125250696907727, 48.929182273707433 ], [ -113.125237435382815, 48.929191514757015 ], [ -113.125223792181103, 48.929191766289279 ], [ -113.125210148979178, 48.929192017819915 ], [ -113.125196505777083, 48.929192269348952 ], [ -113.125182862574789, 48.92919252087637 ], [ -113.12516921937231, 48.929192772402182 ], [ -113.125155576169647, 48.929193023926381 ], [ -113.125141932966784, 48.929193275448966 ], [ -113.125127908109135, 48.929184537453501 ], [ -113.12511388325639, 48.929175799456246 ], [ -113.125099858408532, 48.929167061457207 ], [ -113.125099476759416, 48.92915807194057 ], [ -113.125099095110471, 48.929149082423905 ], [ -113.125098713461725, 48.929140092907232 ], [ -113.125098331813149, 48.929131103390539 ], [ -113.125097950164786, 48.929122113873838 ], [ -113.125111211697998, 48.929112872840093 ] ] } },
{ "type": "Feature", "properties": { }, "geometry": { "type": "LineString", "coordinates": [ [ -113.131607641425305, 48.929046904525535 ], [ -113.131621284530937, 48.929046652238775 ], [ -113.131634927636384, 48.929046399950394 ], [ -113.131648570741646, 48.929046147660408 ], [ -113.13166259667338, 48.929054884846309 ], [ -113.131676239780703, 48.929054632553019 ], [ -113.131690265719598, 48.929063369735438 ], [ -113.131703908828982, 48.929063117438837 ], [ -113.131717551938181, 48.929062865140629 ], [ -113.131731195047209, 48.929062612840809 ], [ -113.131744838156024, 48.929062360539376 ], [ -113.131758864108832, 48.929071097713219 ], [ -113.131772507219736, 48.929070845408482 ], [ -113.131786150330441, 48.929070593102118 ], [ -113.131799793440948, 48.929070340794155 ], [ -113.131813436551269, 48.929070088484565 ], [ -113.131826696804993, 48.929060846696899 ], [ -113.131840339912486, 48.929060594384175 ], [ -113.131853983019795, 48.929060342069846 ], [ -113.131867626126905, 48.929060089753897 ], [ -113.13188126923383, 48.929059837436334 ], [ -113.13189491234057, 48.929059585117159 ], [ -113.131908555447126, 48.929059332796371 ], [ -113.131922198553468, 48.929059080473969 ], [ -113.13193584165964, 48.929058828149962 ], [ -113.131949484765613, 48.929058575824335 ], [ -113.131963127871401, 48.929058323497088 ], [ -113.131976770977005, 48.929058071168242 ], [ -113.131990414082395, 48.929057818837791 ], [ -113.132004057187615, 48.929057566505705 ], [ -113.13201770029265, 48.92905731417202 ], [ -113.132031343397486, 48.929057061836723 ], [ -113.132045369397702, 48.929065798974982 ], [ -113.132059012504612, 48.929065546636373 ], [ -113.132072655611324, 48.929065294296151 ], [ -113.132086298717851, 48.929065041954324 ], [ -113.13209994182418, 48.929064789610877 ], [ -113.132113584930337, 48.929064537265823 ], [ -113.132127228036296, 48.929064284919136 ], [ -113.132140871142056, 48.929064032570864 ], [ -113.132154514247631, 48.929063780220957 ], [ -113.132168157353021, 48.929063527869452 ], [ -113.132181800458213, 48.929063275516341 ], [ -113.132195443563205, 48.929063023161603 ], [ -113.132208703743075, 48.929053781331056 ], [ -113.132222346845253, 48.929053528973171 ], [ -113.132236372877088, 48.929062266087719 ], [ -113.132250015981342, 48.929062013726536 ], [ -113.132263659085396, 48.929061761363727 ], [ -113.132276919252064, 48.929052519525534 ], [ -113.13229056235329, 48.929052267159591 ], [ -113.132304205454346, 48.929052014792042 ], [ -113.132317848555175, 48.929051762422873 ] ] } },
{ "type": "Feature", "properties": { }, "geometry": { "type": "LineString", "coordinates": [ [ -113.131687968731953, 48.929009432871297 ], [ -113.131701611826657, 48.929009180575186 ] ] } },
{ "type": "Feature", "properties": { }, "geometry": { "type": "LineString", "coordinates": [ [ -113.131592467063669, 48.929011198898898 ], [ -113.131578823967445, 48.929011451182099 ], [ -113.131565180871021, 48.929011703463694 ], [ -113.131551537774413, 48.929011955743675 ] ] } },
{ "type": "Feature", "properties": { }, "geometry": { "type": "LineString", "coordinates": [ [ -113.13150716330118, 48.928931807267077 ], [ -113.131506780504111, 48.928922817788468 ], [ -113.131492754636767, 48.928914080582466 ], [ -113.131492371842526, 48.928905091103715 ], [ -113.131491989048456, 48.928896101624986 ], [ -113.131477963191287, 48.928887364416973 ], [ -113.131463937339021, 48.928878627207183 ], [ -113.131450294277798, 48.928878879474667 ], [ -113.13143626843268, 48.928870142261388 ], [ -113.131435885649182, 48.928861152782254 ], [ -113.131421859811596, 48.928852415567086 ], [ -113.131408216757151, 48.928852667829474 ], [ -113.131394573702508, 48.92885292009025 ], [ -113.13138093064768, 48.928853172349406 ], [ -113.131367287592653, 48.928853424606963 ], [ -113.131353261769007, 48.928844687383233 ], [ -113.131339618716055, 48.928844939637486 ], [ -113.131325975662904, 48.928845191890098 ], [ -113.131312332609582, 48.928845444141118 ], [ -113.131298689556061, 48.928845696390525 ], [ -113.131285046502342, 48.928845948638319 ], [ -113.131271403448451, 48.928846200884493 ], [ -113.131257760394362, 48.928846453129076 ], [ -113.131244117340074, 48.92884670537201 ], [ -113.131230474285616, 48.928846957613374 ], [ -113.131216831230958, 48.928847209853089 ], [ -113.131203188176102, 48.928847462091213 ], [ -113.131189545121075, 48.928847714327716 ], [ -113.131175902065834, 48.928847966562593 ], [ -113.131162259010424, 48.928848218795878 ], [ -113.131148615954814, 48.928848471027543 ], [ -113.131134972899005, 48.928848723257602 ], [ -113.131121329843012, 48.928848975486027 ], [ -113.131107686786834, 48.92884922771286 ], [ -113.131094043730471, 48.928849479938073 ], [ -113.131080400673923, 48.92884973216168 ], [ -113.131066757617177, 48.928849984383675 ], [ -113.131053114560217, 48.928850236604049 ], [ -113.131039471503101, 48.92885048882281 ], [ -113.131025828445786, 48.928850741039959 ], [ -113.131012185388272, 48.928850993255494 ], [ -113.130998542330573, 48.928851245469431 ], [ -113.13098489927269, 48.928851497681734 ], [ -113.130971256214622, 48.928851749892438 ], [ -113.13095723045906, 48.928843012619481 ], [ -113.130943587403067, 48.928843264826881 ], [ -113.130929561654682, 48.928834527550443 ], [ -113.130915535911171, 48.928825790272199 ], [ -113.130901892859512, 48.928826042474597 ], [ -113.130887867123164, 48.928817305192879 ], [ -113.130873841391718, 48.928808567909371 ], [ -113.130859815665161, 48.928799830624058 ], [ -113.130845789943507, 48.928791093336969 ], [ -113.130832146900673, 48.928791345530968 ], [ -113.130818121186152, 48.928782608240397 ], [ -113.130804095476563, 48.928773870948014 ], [ -113.130790452438063, 48.928774123137025 ], [ -113.130776426735594, 48.928765385841153 ], [ -113.130762401038027, 48.928756648543512 ], [ -113.130748375345362, 48.928747911244066 ], [ -113.130747992687091, 48.928738921760591 ], [ -113.13074761002899, 48.928729932277115 ], [ -113.130747227371089, 48.928720942793618 ] ] } },
{ "type": "Feature", "properties": { }, "geometry": { "type": "LineString", "coordinates": [ [ -113.132436232758252, 48.927664102517056 ], [ -113.132422972981445, 48.92767334436973 ], [ -113.132409330257346, 48.927673596745784 ], [ -113.132396070473007, 48.927682838595473 ], [ -113.132382810683779, 48.927692080443698 ], [ -113.132369167954224, 48.92769233281507 ], [ -113.132355908157464, 48.92770157466029 ], [ -113.132342265425081, 48.927701827028528 ], [ -113.132329005620775, 48.927711068870757 ], [ -113.132315745811596, 48.927720310711507 ], [ -113.132302103073741, 48.92772056307507 ], [ -113.132288843257015, 48.927729804912843 ], [ -113.132275200516347, 48.927730057273259 ], [ -113.132261940692089, 48.927739299108012 ], [ -113.132248680862944, 48.92774854094133 ], [ -113.132235421028881, 48.927757782773156 ], [ -113.132222161189958, 48.927767024603526 ], [ -113.132208518438532, 48.927767276956203 ], [ -113.132195258592063, 48.927776518783567 ], [ -113.132181615837808, 48.927776771133104 ], [ -113.132168355983808, 48.927786012957483 ], [ -113.132155096124905, 48.927795254780392 ], [ -113.132141453365193, 48.927795507125246 ], [ -113.132128193498787, 48.927804748945157 ], [ -113.132114550736233, 48.92780500128687 ], [ -113.132101290862266, 48.927814243103782 ], [ -113.132087648096913, 48.927814495442348 ], [ -113.132074005331347, 48.927814747779308 ], [ -113.13206036256561, 48.927815000114656 ], [ -113.132046719799689, 48.92781525244839 ], [ -113.132033077033569, 48.927815504780504 ], [ -113.132019817141526, 48.927824746588293 ], [ -113.13200655724458, 48.927833988394617 ], [ -113.131992914472988, 48.927834240722056 ], [ -113.131979271701226, 48.927834493047897 ], [ -113.131966011794105, 48.927843734849695 ], [ -113.131952751882096, 48.92785297665003 ], [ -113.131939109104849, 48.927853228971188 ], [ -113.131925849185322, 48.927862470768517 ], [ -113.131912206405246, 48.927862723086534 ], [ -113.131898563624986, 48.927862975402931 ], [ -113.131885303695285, 48.927872217195748 ], [ -113.131871660912196, 48.927872469508991 ], [ -113.131858018128909, 48.927872721820641 ], [ -113.131844758189033, 48.927881963608918 ], [ -113.131831115402932, 48.927882215917414 ], [ -113.131817472616646, 48.927882468224304 ], [ -113.13180421266658, 48.927891710008055 ], [ -113.131790569877481, 48.927891962311797 ], [ -113.131776927088168, 48.927892214613927 ], [ -113.131763667127942, 48.927901456393144 ], [ -113.131750024335801, 48.927901708692133 ], [ -113.13173638154349, 48.927901960989516 ], [ -113.13172273875098, 48.927902213285272 ], [ -113.131709095958257, 48.927902465579422 ], [ -113.131695453165364, 48.927902717871959 ], [ -113.131681810372271, 48.927902970162883 ], [ -113.131668167579008, 48.927903222452194 ], [ -113.131654524785546, 48.927903474739892 ], [ -113.131640881991885, 48.927903727025978 ], [ -113.131627239198039, 48.92790397931045 ], [ -113.131613213601653, 48.927895242113713 ], [ -113.131599570809868, 48.927895494394889 ], [ -113.131585928017898, 48.927895746674444 ], [ -113.131572285225744, 48.92789599895238 ], [ -113.13155864243339, 48.927896251228709 ], [ -113.131544999640852, 48.927896503503433 ], [ -113.131530974060638, 48.927887766296429 ], [ -113.131517331270175, 48.927888018567842 ], [ -113.131503688479526, 48.927888270837641 ], [ -113.131490045688679, 48.927888523105814 ], [ -113.131476402897633, 48.927888775372395 ], [ -113.131462377331346, 48.927880038156836 ], [ -113.131448351769976, 48.927871300939458 ], [ -113.131434326213466, 48.927862563720311 ], [ -113.131420300661887, 48.927853826499366 ], [ -113.131406275115168, 48.927845089276623 ], [ -113.131392249573366, 48.927836352052111 ], [ -113.131391866811683, 48.927827362571065 ], [ -113.131391484050198, 48.927818373090012 ], [ -113.131391101288898, 48.927809383608952 ], [ -113.131390718527797, 48.927800394127864 ], [ -113.131376693001442, 48.92779165690115 ], [ -113.131376310243155, 48.927782667419955 ], [ -113.131375927485053, 48.927773677938745 ], [ -113.131361901968873, 48.927764940710041 ], [ -113.131361519213598, 48.927755951228718 ], [ -113.131361136458523, 48.927746961747374 ], [ -113.131360753703646, 48.927737972266009 ], [ -113.131360370948954, 48.927728982784622 ], [ -113.131359988194447, 48.927719993303235 ], [ -113.131359605440139, 48.927711003821827 ], [ -113.131372865427167, 48.927701762088432 ], [ -113.131358839932091, 48.927693024858954 ], [ -113.131344814441889, 48.927684287627677 ], [ -113.131330788956575, 48.927675550394611 ], [ -113.131317146222187, 48.927675802641495 ], [ -113.131303503487601, 48.927676054886753 ], [ -113.131289478011709, 48.927667317648506 ], [ -113.131275835279212, 48.927667569890467 ], [ -113.131262192546501, 48.927667822130829 ], [ -113.13124854981362, 48.927668074369556 ], [ -113.13123490708054, 48.927668326606671 ], [ -113.131221264347261, 48.92766857884218 ], [ -113.131207621613797, 48.927668831076076 ], [ -113.131193978880162, 48.927669083308352 ], [ -113.131180336146315, 48.927669335539022 ], [ -113.131166693412297, 48.927669587768087 ], [ -113.131153050678066, 48.927669839995538 ], [ -113.131139790657883, 48.927679081704156 ], [ -113.13112614792081, 48.927679333928452 ], [ -113.13111250518358, 48.92767958615115 ], [ -113.131099245153223, 48.927688827855242 ], [ -113.131085985117949, 48.927698069557884 ], [ -113.131072725077786, 48.927707311259056 ], [ -113.131059082332456, 48.927707563475543 ], [ -113.131045439586913, 48.927707815690404 ], [ -113.131031796841214, 48.927708067903666 ], [ -113.131018154095301, 48.927708320115308 ], [ -113.131004894039677, 48.927717561808883 ], [ -113.130991251290951, 48.927717814017399 ], [ -113.130977991227809, 48.927727055707976 ], [ -113.130964731159779, 48.92773629739709 ], [ -113.130951471086846, 48.927745539084739 ], [ -113.130951853768309, 48.927754528568528 ], [ -113.130938593688228, 48.927763770254778 ], [ -113.130938976367617, 48.927772759738659 ], [ -113.13093935904719, 48.927781749222483 ], [ -113.130926098957715, 48.927790990907397 ], [ -113.130912838863324, 48.927800232590826 ], [ -113.130899578764044, 48.92780947427282 ], [ -113.130886318659861, 48.927818715953322 ], [ -113.130886701330596, 48.927827705437402 ], [ -113.130873441219265, 48.927836947116511 ], [ -113.130873823887939, 48.92784593660064 ], [ -113.13086056376946, 48.927855178278357 ], [ -113.130847303646078, 48.927864419954602 ], [ -113.130834043517808, 48.92787366162937 ], [ -113.130820783384635, 48.927882903302695 ], [ -113.13082116604447, 48.927891892787066 ], [ -113.130807905904149, 48.927901134458956 ], [ -113.130794645758925, 48.927910376129411 ], [ -113.13079502841444, 48.927919365613896 ], [ -113.130795411070125, 48.927928355098366 ], [ -113.130795793726023, 48.927937344582809 ], [ -113.130782533569132, 48.927946586251991 ], [ -113.130782916222955, 48.927955575736497 ], [ -113.130769656058902, 48.927964817404266 ], [ -113.130756395889989, 48.927974059070564 ], [ -113.130756778539464, 48.927983048555184 ], [ -113.130757161189152, 48.92799203803979 ], [ -113.130743901010817, 48.928001279704745 ], [ -113.13074428365843, 48.928010269189407 ], [ -113.130731023472933, 48.928019510852963 ], [ -113.130717763282533, 48.928028752515068 ], [ -113.130718145925826, 48.928037741999837 ], [ -113.130704885728278, 48.928046983660536 ], [ -113.13070526836951, 48.928055973145348 ], [ -113.130705651010913, 48.928064962630138 ], [ -113.130692390803958, 48.928074204289516 ], [ -113.1306927734433, 48.928083193774341 ], [ -113.130679513229182, 48.928092435432305 ], [ -113.13066625301019, 48.928101677088812 ], [ -113.130666635645213, 48.928110666573758 ], [ -113.130653375419058, 48.928119908228858 ], [ -113.130653758052006, 48.928128897713862 ], [ -113.130640497818703, 48.928138139367562 ], [ -113.130627237580498, 48.928147381019791 ], [ -113.130613977337404, 48.928156622670549 ], [ -113.130600717089408, 48.928165864319858 ], [ -113.130601099713516, 48.928174853805089 ], [ -113.130587839458371, 48.928184095452991 ], [ -113.130588222080405, 48.928193084938293 ], [ -113.130574961818098, 48.928202326584781 ], [ -113.130561701550917, 48.928211568229798 ], [ -113.130548441278833, 48.928220809873366 ], [ -113.130535181001832, 48.928230051515463 ], [ -113.130535563615041, 48.928239041000992 ], [ -113.130535946228434, 48.928248030486529 ], [ -113.13052268594204, 48.928257272127283 ], [ -113.130509425650743, 48.928266513766573 ], [ -113.130509808259802, 48.928275503252209 ], [ -113.130496547961371, 48.928284744890099 ], [ -113.130496930568356, 48.928293734375792 ], [ -113.130497313175539, 48.928302723861464 ], [ -113.130484052867686, 48.928311965498011 ], [ -113.130470792554945, 48.928321207133109 ], [ -113.130457532237301, 48.928330448766722 ], [ -113.130457914837891, 48.928339438252578 ], [ -113.130444654513099, 48.928348679884799 ], [ -113.130445037111627, 48.928357669370698 ], [ -113.130431776779687, 48.928366911001518 ], [ -113.130418516442845, 48.928376152630875 ], [ -113.130404873509349, 48.928376404772671 ], [ -113.13039161316496, 48.928385646399015 ], [ -113.130378352815697, 48.928394888023924 ], [ -113.130378735402928, 48.928403877510128 ], [ -113.130365475046517, 48.928413119133623 ], [ -113.130365857631688, 48.928422108619891 ], [ -113.130352597268114, 48.928431350241979 ], [ -113.130352979851224, 48.92844033972829 ], [ -113.130339719480489, 48.928449581348985 ], [ -113.130340102061524, 48.92845857083536 ], [ -113.13032684168364, 48.928467812454642 ], [ -113.130327224262615, 48.928476801941059 ], [ -113.130313963877569, 48.928486043558934 ], [ -113.130314346454469, 48.928495033045401 ], [ -113.130301086062289, 48.928504274661883 ], [ -113.130301468637128, 48.9285132641484 ], [ -113.130301851212138, 48.928522253634888 ], [ -113.130288590810537, 48.928531495250041 ], [ -113.1302889733835, 48.928540484736587 ], [ -113.13027571297475, 48.928549726350319 ], [ -113.130262069992668, 48.928549978475935 ], [ -113.130248809576372, 48.928559220086683 ], [ -113.130235166591461, 48.928559472209145 ], [ -113.130221523606338, 48.928559724329986 ], [ -113.130207880621043, 48.928559976449215 ], [ -113.130194620191958, 48.928569218053909 ], [ -113.13018135975797, 48.928578459657132 ], [ -113.130167716767204, 48.928578711771692 ], [ -113.130154073776254, 48.928578963884647 ], [ -113.13014081333209, 48.928588205483344 ], [ -113.130127552883039, 48.928597447080556 ], [ -113.130113909886617, 48.928597699188835 ], [ -113.130100649430048, 48.928606940783062 ], [ -113.130087388968548, 48.928616182375826 ], [ -113.130074128502187, 48.928625423967127 ], [ -113.130060485497665, 48.928625676069188 ], [ -113.130046842492959, 48.928625928169645 ], [ -113.130033582016409, 48.928635169756419 ], [ -113.130019939008875, 48.928635421853727 ], [ -113.130006678524794, 48.928644663437495 ], [ -113.129993418035824, 48.928653905019807 ], [ -113.129993800557386, 48.928662894507916 ], [ -113.129994183079148, 48.928671883996032 ] ] } },
{ "type": "Feature", "properties": { }, "geometry": { "type": "LineString", "coordinates": [ [ -113.13234547171632, 48.928097616306403 ], [ -113.132345854652954, 48.928106605781288 ], [ -113.132332594744426, 48.928115847624902 ], [ -113.132332977678999, 48.928124837099851 ], [ -113.132333360613728, 48.928133826574765 ], [ -113.132333743548685, 48.928142816049657 ], [ -113.132334126483812, 48.928151805524557 ], [ -113.132348152276734, 48.928160542630252 ], [ -113.132348535214689, 48.928169532105031 ], [ -113.132348918152843, 48.928178521579774 ], [ -113.132335658226268, 48.928187763423935 ], [ -113.132322398294775, 48.928197005266604 ], [ -113.132309138358409, 48.928206247107816 ], [ -113.132295495488023, 48.928206499472545 ], [ -113.13228223554411, 48.928215741310765 ], [ -113.132282618470967, 48.928224730785836 ], [ -113.132269358519906, 48.928233972622657 ], [ -113.132269741444702, 48.928242962097784 ], [ -113.132256481486493, 48.928252203933198 ], [ -113.132243221523396, 48.928261445767141 ], [ -113.13222957863735, 48.928261698124302 ], [ -113.132216318666721, 48.928270939955262 ], [ -113.132202675777862, 48.928271192309275 ], [ -113.132188649978133, 48.928262455186101 ], [ -113.132174624183307, 48.928253718061129 ], [ -113.132160598393369, 48.928244980934394 ], [ -113.132146955511089, 48.928245233281714 ], [ -113.132133312628639, 48.928245485627407 ] ] } },
{ "type": "Feature", "properties": { }, "geometry": { "type": "LineString", "coordinates": [ [ -113.132683095694048, 48.928010401311127 ], [ -113.13268347869014, 48.928019390784122 ], [ -113.132683861686445, 48.928028380257111 ], [ -113.132697887503767, 48.928037117320045 ], [ -113.132711913325977, 48.928045854381182 ], [ -113.132712296327753, 48.92805484385395 ], [ -113.132726322157509, 48.928063580913204 ], [ -113.132739964985106, 48.928063328498084 ] ] } },
{ "type": "Feature", "properties": { }, "geometry": { "type": "LineString", "coordinates": [ [ -113.132161988324398, 48.927957065354946 ], [ -113.132175248223945, 48.927947823530864 ], [ -113.132188891024867, 48.927947571181399 ], [ -113.132202533825605, 48.927947318830313 ], [ -113.13221655953754, 48.92795605595353 ], [ -113.132230585254376, 48.927964793074935 ], [ -113.132217325360855, 48.927974034905269 ], [ -113.132204065462474, 48.927983276734139 ], [ -113.13220444837215, 48.927992266210047 ], [ -113.132191188466621, 48.928001508037525 ], [ -113.132191571374236, 48.928010497513483 ] ] } },
{ "type": "Feature", "properties": { }, "geometry": { "type": "LineString", "coordinates": [ [ -113.132666005945936, 48.927929748460862 ], [ -113.132652746143606, 48.927938990339996 ], [ -113.132653129133303, 48.92794797981329 ] ] } },
{ "type": "Feature", "properties": { }, "geometry": { "type": "LineString", "coordinates": [ [ -113.132732304884172, 48.927883539043201 ], [ -113.132731921881117, 48.927874549570284 ], [ -113.132731538878247, 48.927865560097352 ], [ -113.132731155875575, 48.927856570624407 ], [ -113.132730772873103, 48.927847581151433 ], [ -113.132730389870801, 48.927838591678459 ] ] } },
{ "type": "Feature", "properties": { }, "geometry": { "type": "LineString", "coordinates": [ [ -113.132725027858669, 48.927712739054968 ], [ -113.132725410858299, 48.927721728528176 ], [ -113.132712151121069, 48.927730970413471 ], [ -113.132712534118639, 48.927739959886743 ], [ -113.132699274374261, 48.927749201770631 ], [ -113.132685631631944, 48.927749454179676 ], [ -113.132671988889442, 48.927749706587086 ], [ -113.132658346146755, 48.927749958992905 ], [ -113.132644703403855, 48.927750211397097 ], [ -113.132631060660785, 48.927750463799676 ], [ -113.132617417917515, 48.927750716200656 ], [ -113.132603775174061, 48.927750968600009 ], [ -113.132590515406321, 48.927760210471732 ], [ -113.132576872660039, 48.927760462867937 ], [ -113.132562846942548, 48.927751725788418 ], [ -113.132549204198327, 48.92775197818132 ], [ -113.132535561453921, 48.927752230572622 ], [ -113.132521918709315, 48.927752482962298 ] ] } },
{ "type": "Feature", "properties": { }, "geometry": { "type": "LineString", "coordinates": [ [ -113.132447960734652, 48.927618902762916 ], [ -113.132447577786252, 48.927609913287867 ], [ -113.132447194838022, 48.927600923812811 ], [ -113.132460454591495, 48.927591681957587 ], [ -113.13247371434008, 48.927582440100892 ], [ -113.132486974083747, 48.927573198242733 ], [ -113.132486591128952, 48.927564208767862 ], [ -113.1324998508655, 48.927554966908303 ], [ -113.132499467908616, 48.927545977433461 ], [ -113.132512727638002, 48.927536735572502 ], [ -113.132512344679071, 48.927527746097724 ], [ -113.132511961720326, 48.927518756622931 ], [ -113.132525221440289, 48.927509514760636 ], [ -113.132524838479483, 48.927500525285886 ], [ -113.132524455518862, 48.927491535811129 ], [ -113.132524072558425, 48.927482546336336 ], [ -113.132537332266736, 48.927473304472784 ], [ -113.13255059197013, 48.92746406260774 ], [ -113.132550209005373, 48.927455073133075 ], [ -113.132563468701633, 48.927445831266638 ], [ -113.132563085734802, 48.927436841792016 ], [ -113.132562702768169, 48.927427852317379 ], [ -113.132562319801735, 48.927418862842728 ], [ -113.132561936835501, 48.92740987336807 ], [ -113.132575196517806, 48.927400631500426 ], [ -113.132574813549496, 48.927391642025803 ], [ -113.132574430581386, 48.927382652551167 ], [ -113.132574047613417, 48.927373663076523 ], [ -113.13257366464569, 48.927364673601843 ], [ -113.13257328167812, 48.927355684127171 ], [ -113.132572898710748, 48.927346694652464 ], [ -113.13257251574359, 48.927337705177749 ], [ -113.132572132776602, 48.927328715703013 ], [ -113.132571749809784, 48.927319726228255 ], [ -113.13257136684318, 48.927310736753483 ], [ -113.132570983876761, 48.927301747278712 ], [ -113.13257060091054, 48.927292757803912 ], [ -113.132570217944505, 48.927283768329083 ], [ -113.132569834978639, 48.927274778854255 ], [ -113.132569452012987, 48.927265789379412 ], [ -113.132582711656553, 48.92725654751127 ], [ -113.132582328688827, 48.927247558036484 ], [ -113.132581945721299, 48.927238568561663 ], [ -113.132581562753955, 48.92722957908682 ], [ -113.132567537187555, 48.927220842004914 ], [ -113.132553511626028, 48.927212104921217 ], [ -113.132566771258695, 48.927202863055008 ], [ -113.132566388294549, 48.92719387358003 ], [ -113.132566005330602, 48.927184884105024 ], [ -113.13256562236684, 48.927175894630018 ], [ -113.132565239403277, 48.927166905154984 ] ] } },
{ "type": "Feature", "properties": { }, "geometry": { "type": "LineString", "coordinates": [ [ -113.13253565648553, 48.927113473083537 ], [ -113.132535273528177, 48.927104483608232 ], [ -113.132548533136386, 48.927095241744333 ], [ -113.132548150176987, 48.927086252269063 ], [ -113.132547767217758, 48.927077262793794 ], [ -113.13256102681656, 48.927068020928559 ], [ -113.132560643855271, 48.927059031453325 ], [ -113.132560260894167, 48.927050041978092 ], [ -113.132559877933261, 48.92704105250283 ], [ -113.13255949497254, 48.927032063027553 ], [ -113.132559112012018, 48.927023073552263 ], [ -113.132558729051681, 48.927014084076951 ], [ -113.132571988632023, 48.927004842210643 ], [ -113.132571605669611, 48.926995852735381 ], [ -113.132557580171792, 48.926987115650924 ], [ -113.132557197212208, 48.926978126175541 ], [ -113.132556814252823, 48.926969136700151 ], [ -113.132556431293622, 48.926960147224747 ], [ -113.132556048334607, 48.926951157749322 ], [ -113.13255566537579, 48.926942168273882 ], [ -113.132555282417158, 48.926933178798421 ], [ -113.132554899458739, 48.926924189322953 ], [ -113.132568159016515, 48.926914947457291 ], [ -113.132567776056007, 48.926905957981866 ], [ -113.132567393095684, 48.926896968506419 ], [ -113.13256701013556, 48.926887979030965 ], [ -113.132566627175621, 48.92687898955549 ], [ -113.13256624421588, 48.926870000080001 ], [ -113.132565861256325, 48.92686101060449 ], [ -113.132565478296954, 48.926852021128965 ], [ -113.132565095337782, 48.926843031653434 ], [ -113.132564712378795, 48.926834042177859 ], [ -113.13257797191136, 48.926824800311337 ], [ -113.132591231439037, 48.92681555844333 ], [ -113.132604490961825, 48.926806316573852 ], [ -113.132604107996258, 48.926797327098484 ], [ -113.132617367511898, 48.926788085227606 ], [ -113.132630627022635, 48.926778843355272 ], [ -113.132643886528484, 48.926769601481467 ], [ -113.13265714602943, 48.926760359606199 ], [ -113.132670788502338, 48.926760107204522 ], [ -113.132684047995753, 48.926750865326248 ], [ -113.132683665016643, 48.926741875851278 ] ] } },
{ "type": "Feature", "properties": { }, "geometry": { "type": "LineString", "coordinates": [ [ -113.131844339743424, 48.926910342954535 ], [ -113.131857982264449, 48.926910090648377 ], [ -113.131871624785262, 48.926909838340613 ], [ -113.131885650143857, 48.926918575510754 ], [ -113.131886032981996, 48.926927564990258 ] ] } },
{ "type": "Feature", "properties": { }, "geometry": { "type": "LineString", "coordinates": [ [ -113.132262280039782, 48.926785657508468 ], [ -113.132249020457849, 48.926794899339455 ], [ -113.13223537797171, 48.926795151691394 ], [ -113.132221735485373, 48.926795404041712 ], [ -113.132208092998852, 48.926795656390432 ], [ -113.132194067620375, 48.926786919259676 ], [ -113.132180042246787, 48.92677818212713 ], [ -113.1321663997646, 48.92677843447084 ], [ -113.132152757282185, 48.926778686812931 ], [ -113.132139114799628, 48.926778939153422 ], [ -113.132125472316858, 48.926779191492287 ], [ -113.132111829833889, 48.926779443829552 ], [ -113.132098187350749, 48.926779696165205 ], [ -113.132084544867425, 48.926779948499245 ], [ -113.132070902383887, 48.926780200831665 ], [ -113.132057642767279, 48.926789442641173 ], [ -113.132044000280928, 48.926789694970445 ], [ -113.132030357794378, 48.926789947298118 ], [ -113.132017098167594, 48.926799189103086 ], [ -113.13200345567823, 48.926799441427605 ], [ -113.131990196043915, 48.926808683229588 ] ] } }
]
}
