{
"type": "FeatureCollection",
"name": "A_Topo_mosaic_streamlines_slopeCRS",
"crs": { "type": "name", "properties": { "name": "urn:ogc:def:crs:EPSG::26912" } },
"features": [
{ "type": "Feature", "properties": { }, "geometry": { "type": "LineString", "coordinates": [ [ 344300.499970747390762, 5421781.500015119090676 ], [ 344300.499970747390762, 5421782.500015119090676 ], [ 344301.499970747390762, 5421783.500015119090676 ], [ 344301.499970747390762, 5421784.500015119090676 ], [ 344301.499970747390762, 5421785.500015119090676 ], [ 344302.499970747390762, 5421786.500015119090676 ], [ 344302.499970747390762, 5421787.500015119090676 ], [ 344303.499970747390762, 5421788.500015119090676 ], [ 344304.499970747390762, 5421789.500015119090676 ], [ 344305.499970747390762, 5421790.500015119090676 ], [ 344306.499970747390762, 5421791.500015119090676 ], [ 344307.499970747390762, 5421792.500015119090676 ], [ 344308.499970747390762, 5421793.500015119090676 ], [ 344309.499970747390762, 5421794.500015119090676 ], [ 344310.499970747390762, 5421795.500015119090676 ], [ 344311.499970747390762, 5421796.500015119090676 ], [ 344312.499970747390762, 5421797.500015119090676 ], [ 344313.499970747390762, 5421798.500015119090676 ], [ 344314.499970747390762, 5421799.500015119090676 ], [ 344315.499970747390762, 5421800.500015119090676 ], [ 344316.499970747390762, 5421801.500015119090676 ], [ 344317.499970747390762, 5421802.500015119090676 ], [ 344318.499970747390762, 5421803.500015119090676 ], [ 344319.499970747390762, 5421804.500015119090676 ], [ 344320.499970747390762, 5421805.500015119090676 ], [ 344321.499970747390762, 5421806.500015119090676 ], [ 344322.499970747390762, 5421807.500015119090676 ], [ 344323.499970747390762, 5421808.500015119090676 ], [ 344324.499970747390762, 5421808.500015119090676 ], [ 344325.499970747390762, 5421809.500015119090676 ], [ 344326.499970747390762, 5421809.500015119090676 ], [ 344327.499970747390762, 5421810.500015119090676 ], [ 344328.499970747390762, 5421811.500015119090676 ], [ 344329.499970747390762, 5421811.500015119090676 ], [ 344330.499970747390762, 5421811.500015119090676 ], [ 344331.499970747390762, 5421812.500015119090676 ], [ 344332.499970747390762, 5421813.500015119090676 ], [ 344333.499970747390762, 5421814.500015119090676 ], [ 344334.499970747390762, 5421814.500015119090676 ], [ 344335.499970747390762, 5421815.500015119090676 ], [ 344336.499970747390762, 5421816.500015119090676 ], [ 344337.499970747390762, 5421817.500015119090676 ], [ 344338.499970747390762, 5421818.500015119090676 ], [ 344339.499970747390762, 5421819.500015119090676 ], [ 344340.499970747390762, 5421820.500015119090676 ], [ 344341.499970747390762, 5421821.500015119090676 ], [ 344341.499970747390762, 5421822.500015119090676 ], [ 344342.499970747390762, 5421823.500015119090676 ], [ 344342.499970747390762, 5421824.500015119090676 ], [ 344343.499970747390762, 5421825.500015119090676 ], [ 344343.499970747390762, 5421826.500015119090676 ], [ 344343.499970747390762, 5421827.500015119090676 ], [ 344344.499970747390762, 5421828.500015119090676 ], [ 344344.499970747390762, 5421829.500015119090676 ], [ 344345.499970747390762, 5421830.500015119090676 ], [ 344346.499970747390762, 5421831.500015119090676 ], [ 344347.499970747390762, 5421832.500015119090676 ], [ 344348.499970747390762, 5421833.500015119090676 ], [ 344348.499970747390762, 5421834.500015119090676 ], [ 344349.499970747390762, 5421835.500015119090676 ], [ 344349.499970747390762, 5421836.500015119090676 ], [ 344349.499970747390762, 5421837.500015119090676 ], [ 344350.499970747390762, 5421838.500015119090676 ], [ 344350.499970747390762, 5421839.500015119090676 ], [ 344350.499970747390762, 5421840.500015119090676 ], [ 344350.499970747390762, 5421841.500015119090676 ], [ 344350.499970747390762, 5421842.500015119090676 ], [ 344350.499970747390762, 5421843.500015119090676 ], [ 344349.499970747390762, 5421844.500015119090676 ], [ 344349.499970747390762, 5421845.500015119090676 ], [ 344349.499970747390762, 5421846.500015119090676 ], [ 344348.499970747390762, 5421847.500015119090676 ], [ 344348.499970747390762, 5421848.500015119090676 ], [ 344348.499970747390762, 5421849.500015119090676 ], [ 344348.499970747390762, 5421850.500015119090676 ], [ 344348.499970747390762, 5421851.500015119090676 ], [ 344348.499970747390762, 5421852.500015119090676 ], [ 344347.499970747390762, 5421853.500015119090676 ], [ 344346.499970747390762, 5421854.500015119090676 ], [ 344345.499970747390762, 5421855.500015119090676 ], [ 344345.499970747390762, 5421856.500015119090676 ], [ 344345.499970747390762, 5421857.500015119090676 ], [ 344345.499970747390762, 5421858.500015119090676 ], [ 344344.499970747390762, 5421859.500015119090676 ], [ 344343.499970747390762, 5421860.500015119090676 ], [ 344343.499970747390762, 5421861.500015119090676 ], [ 344342.499970747390762, 5421862.500015119090676 ], [ 344343.499970747390762, 5421863.500015119090676 ], [ 344343.499970747390762, 5421864.500015119090676 ], [ 344343.499970747390762, 5421865.500015119090676 ], [ 344343.499970747390762, 5421866.500015119090676 ], [ 344344.499970747390762, 5421867.500015119090676 ], [ 344345.499970747390762, 5421868.500015119090676 ], [ 344345.499970747390762, 5421869.500015119090676 ], [ 344346.499970747390762, 5421870.500015119090676 ], [ 344346.499970747390762, 5421871.500015119090676 ], [ 344347.499970747390762, 5421872.500015119090676 ], [ 344348.499970747390762, 5421872.500015119090676 ], [ 344349.499970747390762, 5421872.500015119090676 ], [ 344350.499970747390762, 5421872.500015119090676 ], [ 344351.499970747390762, 5421872.500015119090676 ], [ 344352.499970747390762, 5421872.500015119090676 ] ] } },
{ "type": "Feature", "properties": { }, "geometry": { "type": "LineString", "coordinates": [ [ 344336.499970747390762, 5421807.500015119090676 ], [ 344335.499970747390762, 5421807.500015119090676 ] ] } },
{ "type": "Feature", "properties": { }, "geometry": { "type": "LineString", "coordinates": [ [ 344294.499970747390762, 5421780.500015119090676 ], [ 344293.499970747390762, 5421779.500015119090676 ], [ 344292.499970747390762, 5421779.500015119090676 ], [ 344291.499970747390762, 5421779.500015119090676 ], [ 344290.499970747390762, 5421779.500015119090676 ], [ 344289.499970747390762, 5421779.500015119090676 ], [ 344288.499970747390762, 5421778.500015119090676 ], [ 344288.499970747390762, 5421777.500015119090676 ], [ 344287.499970747390762, 5421776.500015119090676 ], [ 344286.499970747390762, 5421775.500015119090676 ], [ 344285.499970747390762, 5421774.500015119090676 ], [ 344284.499970747390762, 5421774.500015119090676 ], [ 344283.499970747390762, 5421774.500015119090676 ], [ 344282.499970747390762, 5421774.500015119090676 ], [ 344281.499970747390762, 5421773.500015119090676 ], [ 344280.499970747390762, 5421772.500015119090676 ], [ 344279.499970747390762, 5421771.500015119090676 ], [ 344278.499970747390762, 5421770.500015119090676 ], [ 344278.499970747390762, 5421769.500015119090676 ], [ 344277.499970747390762, 5421768.500015119090676 ], [ 344276.499970747390762, 5421768.500015119090676 ], [ 344275.499970747390762, 5421767.500015119090676 ], [ 344274.499970747390762, 5421766.500015119090676 ], [ 344273.499970747390762, 5421765.500015119090676 ], [ 344272.499970747390762, 5421764.500015119090676 ], [ 344271.499970747390762, 5421764.500015119090676 ], [ 344270.499970747390762, 5421764.500015119090676 ], [ 344269.499970747390762, 5421764.500015119090676 ], [ 344268.499970747390762, 5421763.500015119090676 ], [ 344267.499970747390762, 5421762.500015119090676 ], [ 344266.499970747390762, 5421761.500015119090676 ], [ 344265.499970747390762, 5421760.500015119090676 ], [ 344264.499970747390762, 5421759.500015119090676 ], [ 344263.499970747390762, 5421758.500015119090676 ], [ 344262.499970747390762, 5421758.500015119090676 ], [ 344261.499970747390762, 5421757.500015119090676 ], [ 344260.499970747390762, 5421757.500015119090676 ], [ 344259.499970747390762, 5421756.500015119090676 ], [ 344258.499970747390762, 5421755.500015119090676 ], [ 344257.499970747390762, 5421754.500015119090676 ], [ 344256.499970747390762, 5421754.500015119090676 ], [ 344255.499970747390762, 5421754.500015119090676 ], [ 344254.499970747390762, 5421753.500015119090676 ], [ 344253.499970747390762, 5421752.500015119090676 ], [ 344252.499970747390762, 5421751.500015119090676 ], [ 344251.499970747390762, 5421750.500015119090676 ], [ 344250.499970747390762, 5421749.500015119090676 ], [ 344249.499970747390762, 5421748.500015119090676 ], [ 344248.499970747390762, 5421748.500015119090676 ], [ 344247.499970747390762, 5421748.500015119090676 ], [ 344246.499970747390762, 5421749.500015119090676 ], [ 344245.499970747390762, 5421749.500015119090676 ], [ 344244.499970747390762, 5421748.500015119090676 ], [ 344243.499970747390762, 5421748.500015119090676 ], [ 344242.499970747390762, 5421748.500015119090676 ], [ 344241.499970747390762, 5421747.500015119090676 ], [ 344240.499970747390762, 5421746.500015119090676 ], [ 344239.499970747390762, 5421745.500015119090676 ], [ 344238.499970747390762, 5421744.500015119090676 ], [ 344237.499970747390762, 5421743.500015119090676 ], [ 344236.499970747390762, 5421742.500015119090676 ], [ 344235.499970747390762, 5421741.500015119090676 ], [ 344234.499970747390762, 5421740.500015119090676 ], [ 344234.499970747390762, 5421739.500015119090676 ], [ 344233.499970747390762, 5421738.500015119090676 ], [ 344233.499970747390762, 5421737.500015119090676 ], [ 344232.499970747390762, 5421736.500015119090676 ], [ 344232.499970747390762, 5421735.500015119090676 ], [ 344231.499970747390762, 5421734.500015119090676 ], [ 344230.499970747390762, 5421733.500015119090676 ], [ 344230.499970747390762, 5421732.500015119090676 ], [ 344230.499970747390762, 5421731.500015119090676 ], [ 344230.499970747390762, 5421730.500015119090676 ], [ 344230.499970747390762, 5421729.500015119090676 ], [ 344231.499970747390762, 5421728.500015119090676 ], [ 344232.499970747390762, 5421728.500015119090676 ], [ 344233.499970747390762, 5421728.500015119090676 ], [ 344234.499970747390762, 5421727.500015119090676 ], [ 344235.499970747390762, 5421726.500015119090676 ], [ 344236.499970747390762, 5421726.500015119090676 ], [ 344237.499970747390762, 5421725.500015119090676 ], [ 344238.499970747390762, 5421724.500015119090676 ], [ 344239.499970747390762, 5421724.500015119090676 ], [ 344240.499970747390762, 5421724.500015119090676 ], [ 344241.499970747390762, 5421724.500015119090676 ], [ 344242.499970747390762, 5421724.500015119090676 ], [ 344243.499970747390762, 5421724.500015119090676 ], [ 344244.499970747390762, 5421725.500015119090676 ], [ 344244.499970747390762, 5421726.500015119090676 ], [ 344245.499970747390762, 5421727.500015119090676 ], [ 344246.499970747390762, 5421728.500015119090676 ], [ 344247.499970747390762, 5421728.500015119090676 ], [ 344248.499970747390762, 5421728.500015119090676 ], [ 344249.499970747390762, 5421729.500015119090676 ], [ 344250.499970747390762, 5421729.500015119090676 ], [ 344251.499970747390762, 5421729.500015119090676 ], [ 344252.499970747390762, 5421729.500015119090676 ], [ 344253.499970747390762, 5421729.500015119090676 ], [ 344254.499970747390762, 5421729.500015119090676 ], [ 344255.499970747390762, 5421729.500015119090676 ], [ 344256.499970747390762, 5421729.500015119090676 ], [ 344257.499970747390762, 5421729.500015119090676 ], [ 344258.499970747390762, 5421729.500015119090676 ], [ 344259.499970747390762, 5421729.500015119090676 ], [ 344260.499970747390762, 5421729.500015119090676 ], [ 344261.499970747390762, 5421729.500015119090676 ], [ 344262.499970747390762, 5421729.500015119090676 ], [ 344263.499970747390762, 5421729.500015119090676 ], [ 344264.499970747390762, 5421729.500015119090676 ], [ 344265.499970747390762, 5421729.500015119090676 ], [ 344266.499970747390762, 5421729.500015119090676 ], [ 344267.499970747390762, 5421728.500015119090676 ], [ 344268.499970747390762, 5421728.500015119090676 ], [ 344269.499970747390762, 5421728.500015119090676 ], [ 344270.499970747390762, 5421728.500015119090676 ], [ 344271.499970747390762, 5421728.500015119090676 ], [ 344272.499970747390762, 5421728.500015119090676 ], [ 344273.499970747390762, 5421728.500015119090676 ], [ 344274.499970747390762, 5421727.500015119090676 ], [ 344275.499970747390762, 5421726.500015119090676 ], [ 344276.499970747390762, 5421726.500015119090676 ], [ 344277.499970747390762, 5421725.500015119090676 ], [ 344278.499970747390762, 5421724.500015119090676 ], [ 344279.499970747390762, 5421723.500015119090676 ], [ 344280.499970747390762, 5421722.500015119090676 ], [ 344280.499970747390762, 5421721.500015119090676 ], [ 344280.499970747390762, 5421720.500015119090676 ], [ 344280.499970747390762, 5421719.500015119090676 ], [ 344279.499970747390762, 5421718.500015119090676 ], [ 344278.499970747390762, 5421717.500015119090676 ], [ 344277.499970747390762, 5421717.500015119090676 ], [ 344276.499970747390762, 5421716.500015119090676 ], [ 344275.499970747390762, 5421716.500015119090676 ], [ 344274.499970747390762, 5421715.500015119090676 ], [ 344274.499970747390762, 5421714.500015119090676 ], [ 344274.499970747390762, 5421713.500015119090676 ], [ 344274.499970747390762, 5421712.500015119090676 ], [ 344274.499970747390762, 5421711.500015119090676 ], [ 344273.499970747390762, 5421710.500015119090676 ], [ 344273.499970747390762, 5421709.500015119090676 ], [ 344272.499970747390762, 5421708.500015119090676 ], [ 344271.499970747390762, 5421707.500015119090676 ], [ 344271.499970747390762, 5421706.500015119090676 ], [ 344271.499970747390762, 5421705.500015119090676 ], [ 344270.499970747390762, 5421704.500015119090676 ], [ 344269.499970747390762, 5421703.500015119090676 ], [ 344268.499970747390762, 5421702.500015119090676 ], [ 344267.499970747390762, 5421701.500015119090676 ], [ 344267.499970747390762, 5421700.500015119090676 ], [ 344266.499970747390762, 5421699.500015119090676 ], [ 344265.499970747390762, 5421699.500015119090676 ], [ 344264.499970747390762, 5421699.500015119090676 ], [ 344263.499970747390762, 5421698.500015119090676 ], [ 344262.499970747390762, 5421697.500015119090676 ], [ 344261.499970747390762, 5421696.500015119090676 ], [ 344261.499970747390762, 5421695.500015119090676 ], [ 344260.499970747390762, 5421694.500015119090676 ], [ 344259.499970747390762, 5421693.500015119090676 ], [ 344258.499970747390762, 5421693.500015119090676 ], [ 344257.499970747390762, 5421692.500015119090676 ], [ 344256.499970747390762, 5421691.500015119090676 ], [ 344255.499970747390762, 5421691.500015119090676 ], [ 344254.499970747390762, 5421691.500015119090676 ], [ 344253.499970747390762, 5421690.500015119090676 ], [ 344252.499970747390762, 5421689.500015119090676 ], [ 344252.499970747390762, 5421688.500015119090676 ], [ 344252.499970747390762, 5421687.500015119090676 ], [ 344251.499970747390762, 5421686.500015119090676 ], [ 344251.499970747390762, 5421685.500015119090676 ], [ 344250.499970747390762, 5421684.500015119090676 ], [ 344249.499970747390762, 5421683.500015119090676 ], [ 344248.499970747390762, 5421682.500015119090676 ], [ 344248.499970747390762, 5421681.500015119090676 ], [ 344247.499970747390762, 5421680.500015119090676 ], [ 344247.499970747390762, 5421679.500015119090676 ], [ 344246.499970747390762, 5421678.500015119090676 ], [ 344245.499970747390762, 5421678.500015119090676 ], [ 344244.499970747390762, 5421677.500015119090676 ], [ 344243.499970747390762, 5421677.500015119090676 ], [ 344242.499970747390762, 5421676.500015119090676 ], [ 344241.499970747390762, 5421676.500015119090676 ], [ 344240.499970747390762, 5421675.500015119090676 ], [ 344239.499970747390762, 5421674.500015119090676 ], [ 344238.499970747390762, 5421673.500015119090676 ], [ 344237.499970747390762, 5421673.500015119090676 ], [ 344236.499970747390762, 5421673.500015119090676 ], [ 344235.499970747390762, 5421672.500015119090676 ], [ 344234.499970747390762, 5421672.500015119090676 ], [ 344233.499970747390762, 5421672.500015119090676 ], [ 344232.499970747390762, 5421671.500015119090676 ], [ 344231.499970747390762, 5421671.500015119090676 ], [ 344230.499970747390762, 5421671.500015119090676 ], [ 344229.499970747390762, 5421670.500015119090676 ], [ 344228.499970747390762, 5421670.500015119090676 ], [ 344227.499970747390762, 5421670.500015119090676 ], [ 344226.499970747390762, 5421669.500015119090676 ], [ 344225.499970747390762, 5421669.500015119090676 ], [ 344224.499970747390762, 5421669.500015119090676 ], [ 344223.499970747390762, 5421669.500015119090676 ], [ 344222.499970747390762, 5421669.500015119090676 ], [ 344221.499970747390762, 5421670.500015119090676 ], [ 344220.499970747390762, 5421669.500015119090676 ], [ 344219.499970747390762, 5421668.500015119090676 ], [ 344218.499970747390762, 5421668.500015119090676 ], [ 344217.499970747390762, 5421668.500015119090676 ], [ 344216.499970747390762, 5421668.500015119090676 ], [ 344215.499970747390762, 5421668.500015119090676 ], [ 344214.499970747390762, 5421668.500015119090676 ], [ 344213.499970747390762, 5421668.500015119090676 ], [ 344212.499970747390762, 5421667.500015119090676 ], [ 344211.499970747390762, 5421667.500015119090676 ], [ 344210.499970747390762, 5421666.500015119090676 ], [ 344209.499970747390762, 5421666.500015119090676 ], [ 344208.499970747390762, 5421666.500015119090676 ], [ 344207.499970747390762, 5421666.500015119090676 ], [ 344206.499970747390762, 5421666.500015119090676 ], [ 344205.499970747390762, 5421666.500015119090676 ], [ 344204.499970747390762, 5421666.500015119090676 ], [ 344203.499970747390762, 5421665.500015119090676 ], [ 344202.499970747390762, 5421665.500015119090676 ], [ 344201.499970747390762, 5421664.500015119090676 ], [ 344200.499970747390762, 5421663.500015119090676 ], [ 344199.499970747390762, 5421662.500015119090676 ], [ 344198.499970747390762, 5421661.500015119090676 ], [ 344197.499970747390762, 5421661.500015119090676 ], [ 344196.499970747390762, 5421660.500015119090676 ], [ 344195.499970747390762, 5421660.500015119090676 ], [ 344194.499970747390762, 5421659.500015119090676 ], [ 344193.499970747390762, 5421659.500015119090676 ], [ 344192.499970747390762, 5421659.500015119090676 ], [ 344191.499970747390762, 5421659.500015119090676 ], [ 344190.499970747390762, 5421659.500015119090676 ], [ 344189.499970747390762, 5421659.500015119090676 ], [ 344188.499970747390762, 5421659.500015119090676 ], [ 344187.499970747390762, 5421659.500015119090676 ], [ 344186.499970747390762, 5421658.500015119090676 ], [ 344185.499970747390762, 5421658.500015119090676 ], [ 344184.499970747390762, 5421658.500015119090676 ], [ 344183.499970747390762, 5421658.500015119090676 ], [ 344182.499970747390762, 5421658.500015119090676 ], [ 344181.499970747390762, 5421658.500015119090676 ], [ 344180.499970747390762, 5421659.500015119090676 ], [ 344179.499970747390762, 5421659.500015119090676 ], [ 344178.499970747390762, 5421659.500015119090676 ], [ 344177.499970747390762, 5421659.500015119090676 ], [ 344176.499970747390762, 5421659.500015119090676 ], [ 344175.499970747390762, 5421659.500015119090676 ], [ 344174.499970747390762, 5421660.500015119090676 ], [ 344173.499970747390762, 5421660.500015119090676 ], [ 344172.499970747390762, 5421660.500015119090676 ], [ 344171.499970747390762, 5421660.500015119090676 ], [ 344170.499970747390762, 5421660.500015119090676 ], [ 344169.499970747390762, 5421660.500015119090676 ], [ 344168.499970747390762, 5421660.500015119090676 ], [ 344167.499970747390762, 5421660.500015119090676 ], [ 344166.499970747390762, 5421660.500015119090676 ], [ 344165.499970747390762, 5421660.500015119090676 ], [ 344164.499970747390762, 5421660.500015119090676 ], [ 344163.499970747390762, 5421660.500015119090676 ], [ 344162.499970747390762, 5421660.500015119090676 ], [ 344161.499970747390762, 5421660.500015119090676 ], [ 344160.499970747390762, 5421660.500015119090676 ], [ 344159.499970747390762, 5421660.500015119090676 ], [ 344158.499970747390762, 5421660.500015119090676 ], [ 344157.499970747390762, 5421660.500015119090676 ], [ 344156.499970747390762, 5421661.500015119090676 ], [ 344155.499970747390762, 5421661.500015119090676 ], [ 344154.499970747390762, 5421661.500015119090676 ], [ 344153.499970747390762, 5421661.500015119090676 ], [ 344152.499970747390762, 5421661.500015119090676 ], [ 344151.499970747390762, 5421661.500015119090676 ], [ 344150.499970747390762, 5421661.500015119090676 ], [ 344149.499970747390762, 5421661.500015119090676 ], [ 344148.499970747390762, 5421661.500015119090676 ], [ 344147.499970747390762, 5421660.500015119090676 ], [ 344146.499970747390762, 5421660.500015119090676 ], [ 344145.499970747390762, 5421660.500015119090676 ], [ 344144.499970747390762, 5421659.500015119090676 ], [ 344144.499970747390762, 5421658.500015119090676 ], [ 344144.499970747390762, 5421657.500015119090676 ], [ 344143.499970747390762, 5421656.500015119090676 ], [ 344142.499970747390762, 5421656.500015119090676 ], [ 344141.499970747390762, 5421656.500015119090676 ], [ 344140.499970747390762, 5421655.500015119090676 ], [ 344139.499970747390762, 5421654.500015119090676 ], [ 344139.499970747390762, 5421653.500015119090676 ], [ 344138.499970747390762, 5421652.500015119090676 ], [ 344137.499970747390762, 5421652.500015119090676 ], [ 344136.499970747390762, 5421651.500015119090676 ], [ 344135.499970747390762, 5421651.500015119090676 ], [ 344134.499970747390762, 5421651.500015119090676 ], [ 344133.499970747390762, 5421650.500015119090676 ], [ 344132.499970747390762, 5421650.500015119090676 ], [ 344131.499970747390762, 5421650.500015119090676 ], [ 344130.499970747390762, 5421650.500015119090676 ], [ 344129.499970747390762, 5421651.500015119090676 ], [ 344128.499970747390762, 5421651.500015119090676 ], [ 344127.499970747390762, 5421652.500015119090676 ], [ 344126.499970747390762, 5421653.500015119090676 ], [ 344125.499970747390762, 5421654.500015119090676 ], [ 344124.499970747390762, 5421655.500015119090676 ], [ 344123.499970747390762, 5421655.500015119090676 ], [ 344122.499970747390762, 5421656.500015119090676 ], [ 344122.499970747390762, 5421657.500015119090676 ], [ 344121.499970747390762, 5421658.500015119090676 ], [ 344120.499970747390762, 5421659.500015119090676 ], [ 344120.499970747390762, 5421660.500015119090676 ], [ 344119.499970747390762, 5421661.500015119090676 ], [ 344118.499970747390762, 5421661.500015119090676 ], [ 344117.499970747390762, 5421662.500015119090676 ], [ 344116.499970747390762, 5421663.500015119090676 ], [ 344115.499970747390762, 5421664.500015119090676 ], [ 344114.499970747390762, 5421665.500015119090676 ], [ 344114.499970747390762, 5421666.500015119090676 ], [ 344114.499970747390762, 5421667.500015119090676 ], [ 344114.499970747390762, 5421668.500015119090676 ], [ 344113.499970747390762, 5421669.500015119090676 ], [ 344113.499970747390762, 5421670.500015119090676 ], [ 344113.499970747390762, 5421671.500015119090676 ], [ 344112.499970747390762, 5421672.500015119090676 ], [ 344112.499970747390762, 5421673.500015119090676 ], [ 344111.499970747390762, 5421674.500015119090676 ], [ 344110.499970747390762, 5421675.500015119090676 ], [ 344111.499970747390762, 5421676.500015119090676 ], [ 344111.499970747390762, 5421677.500015119090676 ], [ 344111.499970747390762, 5421678.500015119090676 ], [ 344111.499970747390762, 5421679.500015119090676 ], [ 344111.499970747390762, 5421680.500015119090676 ], [ 344111.499970747390762, 5421681.500015119090676 ], [ 344111.499970747390762, 5421682.500015119090676 ], [ 344110.499970747390762, 5421683.500015119090676 ], [ 344110.499970747390762, 5421684.500015119090676 ], [ 344110.499970747390762, 5421685.500015119090676 ], [ 344110.499970747390762, 5421686.500015119090676 ], [ 344109.499970747390762, 5421687.500015119090676 ], [ 344109.499970747390762, 5421688.500015119090676 ], [ 344109.499970747390762, 5421689.500015119090676 ], [ 344109.499970747390762, 5421690.500015119090676 ], [ 344109.499970747390762, 5421691.500015119090676 ], [ 344109.499970747390762, 5421692.500015119090676 ], [ 344109.499970747390762, 5421693.500015119090676 ], [ 344108.499970747390762, 5421694.500015119090676 ], [ 344107.499970747390762, 5421695.500015119090676 ], [ 344106.499970747390762, 5421696.500015119090676 ], [ 344106.499970747390762, 5421697.500015119090676 ], [ 344106.499970747390762, 5421698.500015119090676 ], [ 344105.499970747390762, 5421699.500015119090676 ], [ 344104.499970747390762, 5421700.500015119090676 ], [ 344103.499970747390762, 5421701.500015119090676 ], [ 344102.499970747390762, 5421702.500015119090676 ], [ 344101.499970747390762, 5421702.500015119090676 ], [ 344100.499970747390762, 5421703.500015119090676 ], [ 344100.499970747390762, 5421704.500015119090676 ], [ 344099.499970747390762, 5421705.500015119090676 ], [ 344098.499970747390762, 5421706.500015119090676 ], [ 344097.499970747390762, 5421706.500015119090676 ], [ 344096.499970747390762, 5421707.500015119090676 ], [ 344095.499970747390762, 5421708.500015119090676 ], [ 344094.499970747390762, 5421709.500015119090676 ], [ 344093.499970747390762, 5421710.500015119090676 ], [ 344092.499970747390762, 5421710.500015119090676 ], [ 344091.499970747390762, 5421711.500015119090676 ], [ 344091.499970747390762, 5421712.500015119090676 ], [ 344090.499970747390762, 5421713.500015119090676 ], [ 344089.499970747390762, 5421713.500015119090676 ], [ 344088.499970747390762, 5421713.500015119090676 ], [ 344087.499970747390762, 5421714.500015119090676 ], [ 344086.499970747390762, 5421714.500015119090676 ], [ 344085.499970747390762, 5421715.500015119090676 ], [ 344084.499970747390762, 5421716.500015119090676 ], [ 344083.499970747390762, 5421717.500015119090676 ], [ 344082.499970747390762, 5421717.500015119090676 ], [ 344081.499970747390762, 5421717.500015119090676 ], [ 344080.499970747390762, 5421717.500015119090676 ], [ 344079.499970747390762, 5421717.500015119090676 ], [ 344078.499970747390762, 5421717.500015119090676 ], [ 344077.499970747390762, 5421717.500015119090676 ], [ 344076.499970747390762, 5421717.500015119090676 ], [ 344075.499970747390762, 5421717.500015119090676 ], [ 344074.499970747390762, 5421718.500015119090676 ], [ 344074.499970747390762, 5421719.500015119090676 ], [ 344074.499970747390762, 5421720.500015119090676 ], [ 344074.499970747390762, 5421721.500015119090676 ], [ 344074.499970747390762, 5421722.500015119090676 ], [ 344074.499970747390762, 5421723.500015119090676 ], [ 344075.499970747390762, 5421724.500015119090676 ], [ 344075.499970747390762, 5421725.500015119090676 ], [ 344076.499970747390762, 5421726.500015119090676 ], [ 344076.499970747390762, 5421727.500015119090676 ], [ 344076.499970747390762, 5421728.500015119090676 ], [ 344076.499970747390762, 5421729.500015119090676 ], [ 344077.499970747390762, 5421730.500015119090676 ], [ 344078.499970747390762, 5421731.500015119090676 ], [ 344077.499970747390762, 5421732.500015119090676 ], [ 344077.499970747390762, 5421733.500015119090676 ], [ 344078.499970747390762, 5421734.500015119090676 ], [ 344078.499970747390762, 5421735.500015119090676 ], [ 344078.499970747390762, 5421736.500015119090676 ], [ 344078.499970747390762, 5421737.500015119090676 ] ] } },
{ "type": "Feature", "properties": { }, "geometry": { "type": "LineString", "coordinates": [ [ 344353.499970747390762, 5421772.500015119090676 ], [ 344353.499970747390762, 5421771.500015119090676 ], [ 344353.499970747390762, 5421770.500015119090676 ], [ 344353.499970747390762, 5421769.500015119090676 ] ] } },
{ "type": "Feature", "properties": { }, "geometry": { "type": "LineString", "coordinates": [ [ 344007.499970747390762, 5421716.500015119090676 ], [ 344007.499970747390762, 5421717.500015119090676 ], [ 344007.499970747390762, 5421718.500015119090676 ], [ 344007.499970747390762, 5421719.500015119090676 ], [ 344007.499970747390762, 5421720.500015119090676 ], [ 344007.499970747390762, 5421721.500015119090676 ], [ 344008.499970747390762, 5421722.500015119090676 ], [ 344009.499970747390762, 5421722.500015119090676 ], [ 344010.499970747390762, 5421722.500015119090676 ], [ 344011.499970747390762, 5421723.500015119090676 ], [ 344011.499970747390762, 5421724.500015119090676 ], [ 344011.499970747390762, 5421725.500015119090676 ], [ 344012.499970747390762, 5421726.500015119090676 ], [ 344012.499970747390762, 5421727.500015119090676 ], [ 344013.499970747390762, 5421728.500015119090676 ], [ 344014.499970747390762, 5421728.500015119090676 ], [ 344015.499970747390762, 5421729.500015119090676 ], [ 344016.499970747390762, 5421729.500015119090676 ], [ 344017.499970747390762, 5421730.500015119090676 ], [ 344018.499970747390762, 5421731.500015119090676 ], [ 344019.499970747390762, 5421732.500015119090676 ], [ 344020.499970747390762, 5421732.500015119090676 ], [ 344021.499970747390762, 5421733.500015119090676 ], [ 344022.499970747390762, 5421734.500015119090676 ], [ 344023.499970747390762, 5421734.500015119090676 ], [ 344024.499970747390762, 5421735.500015119090676 ], [ 344025.499970747390762, 5421735.500015119090676 ], [ 344026.499970747390762, 5421735.500015119090676 ], [ 344027.499970747390762, 5421736.500015119090676 ], [ 344028.499970747390762, 5421737.500015119090676 ], [ 344029.499970747390762, 5421738.500015119090676 ], [ 344029.499970747390762, 5421739.500015119090676 ], [ 344030.499970747390762, 5421740.500015119090676 ], [ 344031.499970747390762, 5421741.500015119090676 ], [ 344032.499970747390762, 5421742.500015119090676 ], [ 344033.499970747390762, 5421743.500015119090676 ], [ 344034.499970747390762, 5421744.500015119090676 ], [ 344035.499970747390762, 5421744.500015119090676 ], [ 344036.499970747390762, 5421745.500015119090676 ], [ 344037.499970747390762, 5421745.500015119090676 ], [ 344038.499970747390762, 5421746.500015119090676 ], [ 344039.499970747390762, 5421747.500015119090676 ], [ 344040.499970747390762, 5421747.500015119090676 ], [ 344041.499970747390762, 5421747.500015119090676 ], [ 344042.499970747390762, 5421748.500015119090676 ], [ 344043.499970747390762, 5421748.500015119090676 ], [ 344044.499970747390762, 5421749.500015119090676 ], [ 344045.499970747390762, 5421750.500015119090676 ], [ 344046.499970747390762, 5421751.500015119090676 ], [ 344047.499970747390762, 5421752.500015119090676 ], [ 344048.499970747390762, 5421752.500015119090676 ], [ 344049.499970747390762, 5421752.500015119090676 ], [ 344050.499970747390762, 5421752.500015119090676 ], [ 344051.499970747390762, 5421751.500015119090676 ], [ 344052.499970747390762, 5421752.500015119090676 ], [ 344053.499970747390762, 5421752.500015119090676 ], [ 344054.499970747390762, 5421753.500015119090676 ], [ 344055.499970747390762, 5421753.500015119090676 ], [ 344056.499970747390762, 5421753.500015119090676 ], [ 344057.499970747390762, 5421754.500015119090676 ], [ 344058.499970747390762, 5421754.500015119090676 ], [ 344059.499970747390762, 5421754.500015119090676 ], [ 344060.499970747390762, 5421754.500015119090676 ], [ 344061.499970747390762, 5421754.500015119090676 ], [ 344062.499970747390762, 5421755.500015119090676 ], [ 344063.499970747390762, 5421755.500015119090676 ], [ 344064.499970747390762, 5421755.500015119090676 ], [ 344065.499970747390762, 5421756.500015119090676 ], [ 344066.499970747390762, 5421756.500015119090676 ], [ 344067.499970747390762, 5421757.500015119090676 ], [ 344068.499970747390762, 5421757.500015119090676 ], [ 344069.499970747390762, 5421758.500015119090676 ], [ 344070.499970747390762, 5421758.500015119090676 ], [ 344071.499970747390762, 5421759.500015119090676 ], [ 344072.499970747390762, 5421760.500015119090676 ], [ 344073.499970747390762, 5421760.500015119090676 ], [ 344074.499970747390762, 5421761.500015119090676 ], [ 344075.499970747390762, 5421761.500015119090676 ], [ 344076.499970747390762, 5421761.500015119090676 ], [ 344077.499970747390762, 5421761.500015119090676 ], [ 344078.499970747390762, 5421762.500015119090676 ], [ 344079.499970747390762, 5421761.500015119090676 ], [ 344080.499970747390762, 5421761.500015119090676 ], [ 344081.499970747390762, 5421760.500015119090676 ], [ 344082.499970747390762, 5421759.500015119090676 ], [ 344082.499970747390762, 5421758.500015119090676 ], [ 344082.499970747390762, 5421757.500015119090676 ], [ 344082.499970747390762, 5421756.500015119090676 ], [ 344083.499970747390762, 5421755.500015119090676 ], [ 344084.499970747390762, 5421754.500015119090676 ], [ 344084.499970747390762, 5421753.500015119090676 ], [ 344085.499970747390762, 5421752.500015119090676 ], [ 344085.499970747390762, 5421751.500015119090676 ], [ 344085.499970747390762, 5421750.500015119090676 ], [ 344084.499970747390762, 5421749.500015119090676 ], [ 344083.499970747390762, 5421748.500015119090676 ], [ 344082.499970747390762, 5421748.500015119090676 ], [ 344081.499970747390762, 5421748.500015119090676 ], [ 344080.499970747390762, 5421747.500015119090676 ], [ 344079.499970747390762, 5421746.500015119090676 ], [ 344078.499970747390762, 5421746.500015119090676 ] ] } },
{ "type": "Feature", "properties": { }, "geometry": { "type": "LineString", "coordinates": [ [ 344337.499970747390762, 5421760.500015119090676 ], [ 344338.499970747390762, 5421760.500015119090676 ], [ 344339.499970747390762, 5421761.500015119090676 ], [ 344340.499970747390762, 5421761.500015119090676 ], [ 344341.499970747390762, 5421761.500015119090676 ], [ 344342.499970747390762, 5421761.500015119090676 ], [ 344343.499970747390762, 5421761.500015119090676 ], [ 344344.499970747390762, 5421761.500015119090676 ], [ 344345.499970747390762, 5421761.500015119090676 ], [ 344346.499970747390762, 5421761.500015119090676 ], [ 344347.499970747390762, 5421760.500015119090676 ], [ 344348.499970747390762, 5421759.500015119090676 ], [ 344349.499970747390762, 5421758.500015119090676 ], [ 344349.499970747390762, 5421757.500015119090676 ], [ 344349.499970747390762, 5421756.500015119090676 ], [ 344349.499970747390762, 5421755.500015119090676 ], [ 344349.499970747390762, 5421754.500015119090676 ], [ 344349.499970747390762, 5421753.500015119090676 ], [ 344348.499970747390762, 5421752.500015119090676 ] ] } },
{ "type": "Feature", "properties": { }, "geometry": { "type": "LineString", "coordinates": [ [ 343872.499970747390762, 5421758.500015119090676 ], [ 343871.499970747390762, 5421758.500015119090676 ], [ 343870.499970747390762, 5421758.500015119090676 ], [ 343869.499970747390762, 5421758.500015119090676 ], [ 343868.499970747390762, 5421759.500015119090676 ], [ 343867.499970747390762, 5421759.500015119090676 ], [ 343866.499970747390762, 5421760.500015119090676 ], [ 343865.499970747390762, 5421760.500015119090676 ], [ 343864.499970747390762, 5421760.500015119090676 ], [ 343863.499970747390762, 5421760.500015119090676 ], [ 343862.499970747390762, 5421760.500015119090676 ], [ 343861.499970747390762, 5421761.500015119090676 ], [ 343860.499970747390762, 5421761.500015119090676 ], [ 343859.499970747390762, 5421761.500015119090676 ], [ 343858.499970747390762, 5421761.500015119090676 ], [ 343857.499970747390762, 5421761.500015119090676 ], [ 343856.499970747390762, 5421760.500015119090676 ], [ 343855.499970747390762, 5421760.500015119090676 ], [ 343854.499970747390762, 5421760.500015119090676 ], [ 343853.499970747390762, 5421760.500015119090676 ], [ 343852.499970747390762, 5421760.500015119090676 ], [ 343851.499970747390762, 5421760.500015119090676 ], [ 343850.499970747390762, 5421760.500015119090676 ], [ 343849.499970747390762, 5421760.500015119090676 ], [ 343848.499970747390762, 5421760.500015119090676 ], [ 343847.499970747390762, 5421760.500015119090676 ], [ 343846.499970747390762, 5421760.500015119090676 ], [ 343845.499970747390762, 5421760.500015119090676 ], [ 343844.499970747390762, 5421760.500015119090676 ], [ 343843.499970747390762, 5421760.500015119090676 ], [ 343842.499970747390762, 5421760.500015119090676 ], [ 343841.499970747390762, 5421760.500015119090676 ], [ 343840.499970747390762, 5421761.500015119090676 ], [ 343839.499970747390762, 5421761.500015119090676 ], [ 343838.499970747390762, 5421761.500015119090676 ], [ 343837.499970747390762, 5421761.500015119090676 ], [ 343836.499970747390762, 5421761.500015119090676 ], [ 343835.499970747390762, 5421761.500015119090676 ], [ 343834.499970747390762, 5421761.500015119090676 ], [ 343833.499970747390762, 5421761.500015119090676 ], [ 343832.499970747390762, 5421761.500015119090676 ], [ 343831.499970747390762, 5421761.500015119090676 ], [ 343830.499970747390762, 5421761.500015119090676 ], [ 343829.499970747390762, 5421761.500015119090676 ], [ 343828.499970747390762, 5421760.500015119090676 ], [ 343827.499970747390762, 5421760.500015119090676 ], [ 343826.499970747390762, 5421761.500015119090676 ], [ 343825.499970747390762, 5421761.500015119090676 ], [ 343824.499970747390762, 5421761.500015119090676 ], [ 343823.499970747390762, 5421760.500015119090676 ], [ 343822.499970747390762, 5421760.500015119090676 ], [ 343821.499970747390762, 5421760.500015119090676 ], [ 343820.499970747390762, 5421760.500015119090676 ] ] } },
{ "type": "Feature", "properties": { }, "geometry": { "type": "LineString", "coordinates": [ [ 343866.499970747390762, 5421754.500015119090676 ], [ 343865.499970747390762, 5421754.500015119090676 ] ] } },
{ "type": "Feature", "properties": { }, "geometry": { "type": "LineString", "coordinates": [ [ 343873.499970747390762, 5421754.500015119090676 ], [ 343874.499970747390762, 5421754.500015119090676 ], [ 343875.499970747390762, 5421754.500015119090676 ], [ 343876.499970747390762, 5421754.500015119090676 ] ] } },
{ "type": "Feature", "properties": { }, "geometry": { "type": "LineString", "coordinates": [ [ 343879.499970747390762, 5421745.500015119090676 ], [ 343879.499970747390762, 5421744.500015119090676 ], [ 343880.499970747390762, 5421743.500015119090676 ], [ 343880.499970747390762, 5421742.500015119090676 ], [ 343880.499970747390762, 5421741.500015119090676 ], [ 343881.499970747390762, 5421740.500015119090676 ], [ 343882.499970747390762, 5421739.500015119090676 ], [ 343883.499970747390762, 5421739.500015119090676 ], [ 343884.499970747390762, 5421738.500015119090676 ], [ 343884.499970747390762, 5421737.500015119090676 ], [ 343885.499970747390762, 5421736.500015119090676 ], [ 343886.499970747390762, 5421736.500015119090676 ], [ 343887.499970747390762, 5421736.500015119090676 ], [ 343888.499970747390762, 5421736.500015119090676 ], [ 343889.499970747390762, 5421736.500015119090676 ], [ 343890.499970747390762, 5421735.500015119090676 ], [ 343891.499970747390762, 5421735.500015119090676 ], [ 343892.499970747390762, 5421735.500015119090676 ], [ 343893.499970747390762, 5421735.500015119090676 ], [ 343894.499970747390762, 5421735.500015119090676 ], [ 343895.499970747390762, 5421735.500015119090676 ], [ 343896.499970747390762, 5421735.500015119090676 ], [ 343897.499970747390762, 5421735.500015119090676 ], [ 343898.499970747390762, 5421735.500015119090676 ], [ 343899.499970747390762, 5421735.500015119090676 ], [ 343900.499970747390762, 5421735.500015119090676 ], [ 343901.499970747390762, 5421735.500015119090676 ], [ 343902.499970747390762, 5421735.500015119090676 ], [ 343903.499970747390762, 5421735.500015119090676 ], [ 343904.499970747390762, 5421735.500015119090676 ], [ 343905.499970747390762, 5421735.500015119090676 ], [ 343906.499970747390762, 5421735.500015119090676 ], [ 343907.499970747390762, 5421735.500015119090676 ], [ 343908.499970747390762, 5421735.500015119090676 ], [ 343909.499970747390762, 5421735.500015119090676 ], [ 343910.499970747390762, 5421735.500015119090676 ], [ 343911.499970747390762, 5421735.500015119090676 ], [ 343912.499970747390762, 5421735.500015119090676 ], [ 343913.499970747390762, 5421735.500015119090676 ], [ 343914.499970747390762, 5421735.500015119090676 ], [ 343915.499970747390762, 5421735.500015119090676 ], [ 343916.499970747390762, 5421735.500015119090676 ], [ 343917.499970747390762, 5421735.500015119090676 ], [ 343918.499970747390762, 5421735.500015119090676 ], [ 343919.499970747390762, 5421734.500015119090676 ], [ 343920.499970747390762, 5421734.500015119090676 ], [ 343921.499970747390762, 5421733.500015119090676 ], [ 343922.499970747390762, 5421732.500015119090676 ], [ 343923.499970747390762, 5421732.500015119090676 ], [ 343924.499970747390762, 5421731.500015119090676 ], [ 343925.499970747390762, 5421730.500015119090676 ], [ 343926.499970747390762, 5421729.500015119090676 ], [ 343927.499970747390762, 5421728.500015119090676 ], [ 343928.499970747390762, 5421728.500015119090676 ], [ 343929.499970747390762, 5421727.500015119090676 ], [ 343930.499970747390762, 5421726.500015119090676 ], [ 343931.499970747390762, 5421726.500015119090676 ], [ 343932.499970747390762, 5421725.500015119090676 ], [ 343933.499970747390762, 5421724.500015119090676 ], [ 343934.499970747390762, 5421723.500015119090676 ], [ 343934.499970747390762, 5421722.500015119090676 ], [ 343934.499970747390762, 5421721.500015119090676 ], [ 343934.499970747390762, 5421720.500015119090676 ] ] } },
{ "type": "Feature", "properties": { }, "geometry": { "type": "LineString", "coordinates": [ [ 343807.499970747390762, 5421606.500015119090676 ], [ 343808.499970747390762, 5421607.500015119090676 ], [ 343809.499970747390762, 5421607.500015119090676 ], [ 343810.499970747390762, 5421608.500015119090676 ], [ 343811.499970747390762, 5421609.500015119090676 ], [ 343812.499970747390762, 5421609.500015119090676 ], [ 343813.499970747390762, 5421610.500015119090676 ], [ 343814.499970747390762, 5421610.500015119090676 ], [ 343815.499970747390762, 5421611.500015119090676 ], [ 343816.499970747390762, 5421612.500015119090676 ], [ 343817.499970747390762, 5421612.500015119090676 ], [ 343818.499970747390762, 5421613.500015119090676 ], [ 343819.499970747390762, 5421613.500015119090676 ], [ 343820.499970747390762, 5421614.500015119090676 ], [ 343821.499970747390762, 5421615.500015119090676 ], [ 343822.499970747390762, 5421616.500015119090676 ], [ 343823.499970747390762, 5421617.500015119090676 ], [ 343824.499970747390762, 5421617.500015119090676 ], [ 343825.499970747390762, 5421618.500015119090676 ], [ 343826.499970747390762, 5421618.500015119090676 ], [ 343827.499970747390762, 5421619.500015119090676 ], [ 343828.499970747390762, 5421620.500015119090676 ], [ 343829.499970747390762, 5421620.500015119090676 ], [ 343830.499970747390762, 5421621.500015119090676 ], [ 343831.499970747390762, 5421621.500015119090676 ], [ 343832.499970747390762, 5421622.500015119090676 ], [ 343833.499970747390762, 5421622.500015119090676 ], [ 343834.499970747390762, 5421622.500015119090676 ], [ 343835.499970747390762, 5421622.500015119090676 ], [ 343836.499970747390762, 5421622.500015119090676 ], [ 343837.499970747390762, 5421622.500015119090676 ], [ 343838.499970747390762, 5421623.500015119090676 ], [ 343839.499970747390762, 5421624.500015119090676 ], [ 343840.499970747390762, 5421624.500015119090676 ], [ 343841.499970747390762, 5421624.500015119090676 ], [ 343842.499970747390762, 5421625.500015119090676 ], [ 343843.499970747390762, 5421626.500015119090676 ], [ 343844.499970747390762, 5421626.500015119090676 ], [ 343845.499970747390762, 5421627.500015119090676 ], [ 343846.499970747390762, 5421627.500015119090676 ], [ 343847.499970747390762, 5421627.500015119090676 ], [ 343848.499970747390762, 5421628.500015119090676 ], [ 343849.499970747390762, 5421628.500015119090676 ], [ 343850.499970747390762, 5421628.500015119090676 ], [ 343851.499970747390762, 5421629.500015119090676 ], [ 343852.499970747390762, 5421629.500015119090676 ], [ 343853.499970747390762, 5421629.500015119090676 ], [ 343854.499970747390762, 5421630.500015119090676 ], [ 343855.499970747390762, 5421630.500015119090676 ], [ 343856.499970747390762, 5421630.500015119090676 ], [ 343857.499970747390762, 5421631.500015119090676 ], [ 343858.499970747390762, 5421631.500015119090676 ], [ 343859.499970747390762, 5421631.500015119090676 ], [ 343860.499970747390762, 5421631.500015119090676 ], [ 343861.499970747390762, 5421631.500015119090676 ], [ 343862.499970747390762, 5421631.500015119090676 ], [ 343863.499970747390762, 5421631.500015119090676 ], [ 343864.499970747390762, 5421631.500015119090676 ], [ 343865.499970747390762, 5421631.500015119090676 ], [ 343866.499970747390762, 5421631.500015119090676 ], [ 343867.499970747390762, 5421631.500015119090676 ], [ 343868.499970747390762, 5421630.500015119090676 ], [ 343869.499970747390762, 5421630.500015119090676 ], [ 343870.499970747390762, 5421630.500015119090676 ], [ 343871.499970747390762, 5421630.500015119090676 ], [ 343872.499970747390762, 5421630.500015119090676 ], [ 343873.499970747390762, 5421630.500015119090676 ], [ 343874.499970747390762, 5421629.500015119090676 ], [ 343875.499970747390762, 5421629.500015119090676 ], [ 343876.499970747390762, 5421629.500015119090676 ], [ 343877.499970747390762, 5421629.500015119090676 ], [ 343878.499970747390762, 5421629.500015119090676 ], [ 343879.499970747390762, 5421628.500015119090676 ], [ 343880.499970747390762, 5421627.500015119090676 ], [ 343881.499970747390762, 5421626.500015119090676 ], [ 343882.499970747390762, 5421625.500015119090676 ], [ 343883.499970747390762, 5421624.500015119090676 ], [ 343884.499970747390762, 5421623.500015119090676 ], [ 343884.499970747390762, 5421622.500015119090676 ], [ 343884.499970747390762, 5421621.500015119090676 ], [ 343884.499970747390762, 5421620.500015119090676 ], [ 343884.499970747390762, 5421619.500015119090676 ], [ 343885.499970747390762, 5421618.500015119090676 ], [ 343885.499970747390762, 5421617.500015119090676 ], [ 343885.499970747390762, 5421616.500015119090676 ], [ 343886.499970747390762, 5421615.500015119090676 ], [ 343886.499970747390762, 5421614.500015119090676 ], [ 343886.499970747390762, 5421613.500015119090676 ], [ 343886.499970747390762, 5421612.500015119090676 ], [ 343886.499970747390762, 5421611.500015119090676 ], [ 343886.499970747390762, 5421610.500015119090676 ], [ 343886.499970747390762, 5421609.500015119090676 ], [ 343885.499970747390762, 5421608.500015119090676 ], [ 343886.499970747390762, 5421607.500015119090676 ], [ 343887.499970747390762, 5421606.500015119090676 ], [ 343888.499970747390762, 5421605.500015119090676 ], [ 343889.499970747390762, 5421605.500015119090676 ], [ 343890.499970747390762, 5421605.500015119090676 ], [ 343891.499970747390762, 5421604.500015119090676 ], [ 343892.499970747390762, 5421604.500015119090676 ], [ 343893.499970747390762, 5421604.500015119090676 ], [ 343894.499970747390762, 5421604.500015119090676 ], [ 343895.499970747390762, 5421604.500015119090676 ], [ 343896.499970747390762, 5421604.500015119090676 ], [ 343897.499970747390762, 5421604.500015119090676 ], [ 343898.499970747390762, 5421604.500015119090676 ], [ 343899.499970747390762, 5421604.500015119090676 ], [ 343900.499970747390762, 5421604.500015119090676 ], [ 343901.499970747390762, 5421604.500015119090676 ], [ 343902.499970747390762, 5421605.500015119090676 ], [ 343903.499970747390762, 5421605.500015119090676 ], [ 343904.499970747390762, 5421605.500015119090676 ], [ 343905.499970747390762, 5421606.500015119090676 ], [ 343906.499970747390762, 5421607.500015119090676 ], [ 343907.499970747390762, 5421608.500015119090676 ], [ 343908.499970747390762, 5421608.500015119090676 ], [ 343909.499970747390762, 5421608.500015119090676 ], [ 343910.499970747390762, 5421608.500015119090676 ], [ 343911.499970747390762, 5421608.500015119090676 ], [ 343912.499970747390762, 5421609.500015119090676 ], [ 343913.499970747390762, 5421609.500015119090676 ], [ 343914.499970747390762, 5421610.500015119090676 ], [ 343915.499970747390762, 5421611.500015119090676 ], [ 343916.499970747390762, 5421612.500015119090676 ], [ 343916.499970747390762, 5421613.500015119090676 ], [ 343917.499970747390762, 5421614.500015119090676 ], [ 343917.499970747390762, 5421615.500015119090676 ], [ 343917.499970747390762, 5421616.500015119090676 ], [ 343918.499970747390762, 5421617.500015119090676 ], [ 343919.499970747390762, 5421618.500015119090676 ], [ 343920.499970747390762, 5421619.500015119090676 ], [ 343921.499970747390762, 5421620.500015119090676 ], [ 343921.499970747390762, 5421621.500015119090676 ], [ 343922.499970747390762, 5421622.500015119090676 ], [ 343922.499970747390762, 5421623.500015119090676 ], [ 343923.499970747390762, 5421624.500015119090676 ], [ 343924.499970747390762, 5421625.500015119090676 ], [ 343925.499970747390762, 5421626.500015119090676 ], [ 343926.499970747390762, 5421627.500015119090676 ], [ 343926.499970747390762, 5421628.500015119090676 ], [ 343927.499970747390762, 5421629.500015119090676 ], [ 343928.499970747390762, 5421630.500015119090676 ], [ 343928.499970747390762, 5421631.500015119090676 ], [ 343928.499970747390762, 5421632.500015119090676 ], [ 343928.499970747390762, 5421633.500015119090676 ], [ 343929.499970747390762, 5421634.500015119090676 ], [ 343929.499970747390762, 5421635.500015119090676 ], [ 343930.499970747390762, 5421636.500015119090676 ], [ 343931.499970747390762, 5421637.500015119090676 ], [ 343931.499970747390762, 5421638.500015119090676 ], [ 343931.499970747390762, 5421639.500015119090676 ], [ 343932.499970747390762, 5421640.500015119090676 ], [ 343932.499970747390762, 5421641.500015119090676 ], [ 343933.499970747390762, 5421642.500015119090676 ], [ 343934.499970747390762, 5421643.500015119090676 ], [ 343934.499970747390762, 5421644.500015119090676 ], [ 343935.499970747390762, 5421645.500015119090676 ], [ 343935.499970747390762, 5421646.500015119090676 ], [ 343935.499970747390762, 5421647.500015119090676 ], [ 343936.499970747390762, 5421648.500015119090676 ], [ 343936.499970747390762, 5421649.500015119090676 ], [ 343937.499970747390762, 5421650.500015119090676 ], [ 343938.499970747390762, 5421651.500015119090676 ], [ 343938.499970747390762, 5421652.500015119090676 ], [ 343939.499970747390762, 5421653.500015119090676 ], [ 343939.499970747390762, 5421654.500015119090676 ], [ 343940.499970747390762, 5421655.500015119090676 ], [ 343941.499970747390762, 5421656.500015119090676 ], [ 343942.499970747390762, 5421657.500015119090676 ], [ 343943.499970747390762, 5421658.500015119090676 ], [ 343943.499970747390762, 5421659.500015119090676 ], [ 343944.499970747390762, 5421660.500015119090676 ], [ 343944.499970747390762, 5421661.500015119090676 ], [ 343945.499970747390762, 5421662.500015119090676 ], [ 343946.499970747390762, 5421663.500015119090676 ], [ 343947.499970747390762, 5421664.500015119090676 ], [ 343948.499970747390762, 5421665.500015119090676 ], [ 343948.499970747390762, 5421666.500015119090676 ], [ 343948.499970747390762, 5421667.500015119090676 ], [ 343949.499970747390762, 5421668.500015119090676 ], [ 343950.499970747390762, 5421669.500015119090676 ], [ 343950.499970747390762, 5421670.500015119090676 ], [ 343951.499970747390762, 5421671.500015119090676 ], [ 343951.499970747390762, 5421672.500015119090676 ], [ 343951.499970747390762, 5421673.500015119090676 ], [ 343952.499970747390762, 5421674.500015119090676 ], [ 343953.499970747390762, 5421675.500015119090676 ], [ 343954.499970747390762, 5421676.500015119090676 ], [ 343954.499970747390762, 5421677.500015119090676 ], [ 343955.499970747390762, 5421678.500015119090676 ], [ 343955.499970747390762, 5421679.500015119090676 ], [ 343956.499970747390762, 5421680.500015119090676 ], [ 343957.499970747390762, 5421681.500015119090676 ], [ 343958.499970747390762, 5421681.500015119090676 ], [ 343959.499970747390762, 5421682.500015119090676 ], [ 343960.499970747390762, 5421683.500015119090676 ], [ 343960.499970747390762, 5421684.500015119090676 ], [ 343961.499970747390762, 5421685.500015119090676 ], [ 343961.499970747390762, 5421686.500015119090676 ], [ 343962.499970747390762, 5421687.500015119090676 ], [ 343962.499970747390762, 5421688.500015119090676 ], [ 343963.499970747390762, 5421689.500015119090676 ], [ 343963.499970747390762, 5421690.500015119090676 ], [ 343964.499970747390762, 5421691.500015119090676 ], [ 343964.499970747390762, 5421692.500015119090676 ], [ 343965.499970747390762, 5421693.500015119090676 ], [ 343965.499970747390762, 5421694.500015119090676 ], [ 343966.499970747390762, 5421695.500015119090676 ], [ 343966.499970747390762, 5421696.500015119090676 ], [ 343966.499970747390762, 5421697.500015119090676 ], [ 343967.499970747390762, 5421698.500015119090676 ], [ 343967.499970747390762, 5421699.500015119090676 ], [ 343968.499970747390762, 5421700.500015119090676 ], [ 343969.499970747390762, 5421700.500015119090676 ], [ 343970.499970747390762, 5421701.500015119090676 ], [ 343971.499970747390762, 5421701.500015119090676 ], [ 343972.499970747390762, 5421701.500015119090676 ], [ 343973.499970747390762, 5421701.500015119090676 ], [ 343974.499970747390762, 5421702.500015119090676 ], [ 343975.499970747390762, 5421703.500015119090676 ], [ 343976.499970747390762, 5421703.500015119090676 ], [ 343977.499970747390762, 5421703.500015119090676 ], [ 343978.499970747390762, 5421704.500015119090676 ], [ 343979.499970747390762, 5421705.500015119090676 ], [ 343980.499970747390762, 5421705.500015119090676 ], [ 343981.499970747390762, 5421706.500015119090676 ], [ 343982.499970747390762, 5421707.500015119090676 ], [ 343983.499970747390762, 5421708.500015119090676 ], [ 343984.499970747390762, 5421708.500015119090676 ], [ 343985.499970747390762, 5421708.500015119090676 ], [ 343986.499970747390762, 5421709.500015119090676 ], [ 343987.499970747390762, 5421709.500015119090676 ], [ 343988.499970747390762, 5421710.500015119090676 ], [ 343989.499970747390762, 5421711.500015119090676 ], [ 343989.499970747390762, 5421712.500015119090676 ], [ 343989.499970747390762, 5421713.500015119090676 ] ] } },
{ "type": "Feature", "properties": { }, "geometry": { "type": "LineString", "coordinates": [ [ 343815.499970747390762, 5421654.500015119090676 ], [ 343815.499970747390762, 5421655.500015119090676 ], [ 343816.499970747390762, 5421656.500015119090676 ], [ 343816.499970747390762, 5421657.500015119090676 ], [ 343816.499970747390762, 5421658.500015119090676 ], [ 343816.499970747390762, 5421659.500015119090676 ], [ 343816.499970747390762, 5421660.500015119090676 ], [ 343815.499970747390762, 5421661.500015119090676 ], [ 343815.499970747390762, 5421662.500015119090676 ], [ 343815.499970747390762, 5421663.500015119090676 ], [ 343816.499970747390762, 5421664.500015119090676 ], [ 343817.499970747390762, 5421665.500015119090676 ], [ 343818.499970747390762, 5421666.500015119090676 ], [ 343819.499970747390762, 5421666.500015119090676 ], [ 343820.499970747390762, 5421667.500015119090676 ], [ 343820.499970747390762, 5421668.500015119090676 ], [ 343821.499970747390762, 5421669.500015119090676 ], [ 343821.499970747390762, 5421670.500015119090676 ], [ 343822.499970747390762, 5421671.500015119090676 ], [ 343823.499970747390762, 5421672.500015119090676 ], [ 343824.499970747390762, 5421672.500015119090676 ], [ 343825.499970747390762, 5421673.500015119090676 ], [ 343826.499970747390762, 5421673.500015119090676 ], [ 343827.499970747390762, 5421672.500015119090676 ], [ 343828.499970747390762, 5421671.500015119090676 ], [ 343829.499970747390762, 5421670.500015119090676 ], [ 343830.499970747390762, 5421670.500015119090676 ], [ 343831.499970747390762, 5421670.500015119090676 ] ] } },
{ "type": "Feature", "properties": { }, "geometry": { "type": "LineString", "coordinates": [ [ 343790.499970747390762, 5421645.500015119090676 ], [ 343790.499970747390762, 5421646.500015119090676 ], [ 343790.499970747390762, 5421647.500015119090676 ], [ 343789.499970747390762, 5421648.500015119090676 ], [ 343788.499970747390762, 5421649.500015119090676 ], [ 343788.499970747390762, 5421650.500015119090676 ], [ 343787.499970747390762, 5421651.500015119090676 ], [ 343786.499970747390762, 5421651.500015119090676 ] ] } },
{ "type": "Feature", "properties": { }, "geometry": { "type": "LineString", "coordinates": [ [ 343828.499970747390762, 5421638.500015119090676 ], [ 343827.499970747390762, 5421637.500015119090676 ], [ 343826.499970747390762, 5421637.500015119090676 ], [ 343825.499970747390762, 5421637.500015119090676 ], [ 343824.499970747390762, 5421638.500015119090676 ], [ 343823.499970747390762, 5421639.500015119090676 ], [ 343824.499970747390762, 5421640.500015119090676 ], [ 343825.499970747390762, 5421641.500015119090676 ], [ 343825.499970747390762, 5421642.500015119090676 ], [ 343826.499970747390762, 5421643.500015119090676 ], [ 343826.499970747390762, 5421644.500015119090676 ] ] } },
{ "type": "Feature", "properties": { }, "geometry": { "type": "LineString", "coordinates": [ [ 343791.499970747390762, 5421636.500015119090676 ], [ 343792.499970747390762, 5421637.500015119090676 ], [ 343792.499970747390762, 5421638.500015119090676 ] ] } },
{ "type": "Feature", "properties": { }, "geometry": { "type": "LineString", "coordinates": [ [ 343786.499970747390762, 5421631.500015119090676 ], [ 343786.499970747390762, 5421630.500015119090676 ], [ 343786.499970747390762, 5421629.500015119090676 ], [ 343786.499970747390762, 5421628.500015119090676 ], [ 343786.499970747390762, 5421627.500015119090676 ], [ 343786.499970747390762, 5421626.500015119090676 ] ] } },
{ "type": "Feature", "properties": { }, "geometry": { "type": "LineString", "coordinates": [ [ 343786.499970747390762, 5421612.500015119090676 ], [ 343786.499970747390762, 5421613.500015119090676 ], [ 343787.499970747390762, 5421614.500015119090676 ], [ 343787.499970747390762, 5421615.500015119090676 ], [ 343788.499970747390762, 5421616.500015119090676 ], [ 343789.499970747390762, 5421616.500015119090676 ], [ 343790.499970747390762, 5421616.500015119090676 ], [ 343791.499970747390762, 5421616.500015119090676 ], [ 343792.499970747390762, 5421616.500015119090676 ], [ 343793.499970747390762, 5421616.500015119090676 ], [ 343794.499970747390762, 5421616.500015119090676 ], [ 343795.499970747390762, 5421616.500015119090676 ], [ 343796.499970747390762, 5421617.500015119090676 ], [ 343797.499970747390762, 5421617.500015119090676 ], [ 343798.499970747390762, 5421616.500015119090676 ], [ 343799.499970747390762, 5421616.500015119090676 ], [ 343800.499970747390762, 5421616.500015119090676 ], [ 343801.499970747390762, 5421616.500015119090676 ] ] } },
{ "type": "Feature", "properties": { }, "geometry": { "type": "LineString", "coordinates": [ [ 343806.499970747390762, 5421601.500015119090676 ], [ 343806.499970747390762, 5421600.500015119090676 ], [ 343806.499970747390762, 5421599.500015119090676 ], [ 343805.499970747390762, 5421598.500015119090676 ], [ 343804.499970747390762, 5421597.500015119090676 ], [ 343803.499970747390762, 5421596.500015119090676 ], [ 343803.499970747390762, 5421595.500015119090676 ], [ 343802.499970747390762, 5421594.500015119090676 ], [ 343802.499970747390762, 5421593.500015119090676 ], [ 343801.499970747390762, 5421592.500015119090676 ], [ 343801.499970747390762, 5421591.500015119090676 ], [ 343801.499970747390762, 5421590.500015119090676 ], [ 343800.499970747390762, 5421589.500015119090676 ], [ 343800.499970747390762, 5421588.500015119090676 ], [ 343800.499970747390762, 5421587.500015119090676 ], [ 343800.499970747390762, 5421586.500015119090676 ], [ 343799.499970747390762, 5421585.500015119090676 ], [ 343798.499970747390762, 5421584.500015119090676 ], [ 343798.499970747390762, 5421583.500015119090676 ], [ 343797.499970747390762, 5421582.500015119090676 ], [ 343797.499970747390762, 5421581.500015119090676 ], [ 343797.499970747390762, 5421580.500015119090676 ], [ 343797.499970747390762, 5421579.500015119090676 ], [ 343797.499970747390762, 5421578.500015119090676 ], [ 343796.499970747390762, 5421577.500015119090676 ], [ 343796.499970747390762, 5421576.500015119090676 ], [ 343796.499970747390762, 5421575.500015119090676 ], [ 343796.499970747390762, 5421574.500015119090676 ], [ 343796.499970747390762, 5421573.500015119090676 ], [ 343796.499970747390762, 5421572.500015119090676 ], [ 343796.499970747390762, 5421571.500015119090676 ], [ 343796.499970747390762, 5421570.500015119090676 ], [ 343796.499970747390762, 5421569.500015119090676 ], [ 343796.499970747390762, 5421568.500015119090676 ], [ 343796.499970747390762, 5421567.500015119090676 ], [ 343796.499970747390762, 5421566.500015119090676 ], [ 343796.499970747390762, 5421565.500015119090676 ], [ 343796.499970747390762, 5421564.500015119090676 ], [ 343796.499970747390762, 5421563.500015119090676 ], [ 343796.499970747390762, 5421562.500015119090676 ], [ 343795.499970747390762, 5421561.500015119090676 ], [ 343795.499970747390762, 5421560.500015119090676 ], [ 343795.499970747390762, 5421559.500015119090676 ], [ 343795.499970747390762, 5421558.500015119090676 ], [ 343796.499970747390762, 5421557.500015119090676 ], [ 343797.499970747390762, 5421556.500015119090676 ], [ 343796.499970747390762, 5421555.500015119090676 ], [ 343796.499970747390762, 5421554.500015119090676 ], [ 343796.499970747390762, 5421553.500015119090676 ], [ 343796.499970747390762, 5421552.500015119090676 ], [ 343796.499970747390762, 5421551.500015119090676 ] ] } },
{ "type": "Feature", "properties": { }, "geometry": { "type": "LineString", "coordinates": [ [ 343798.499970747390762, 5421545.500015119090676 ], [ 343798.499970747390762, 5421544.500015119090676 ], [ 343797.499970747390762, 5421543.500015119090676 ], [ 343797.499970747390762, 5421542.500015119090676 ], [ 343797.499970747390762, 5421541.500015119090676 ], [ 343796.499970747390762, 5421540.500015119090676 ], [ 343796.499970747390762, 5421539.500015119090676 ], [ 343796.499970747390762, 5421538.500015119090676 ], [ 343796.499970747390762, 5421537.500015119090676 ], [ 343796.499970747390762, 5421536.500015119090676 ], [ 343796.499970747390762, 5421535.500015119090676 ], [ 343796.499970747390762, 5421534.500015119090676 ], [ 343795.499970747390762, 5421533.500015119090676 ], [ 343795.499970747390762, 5421532.500015119090676 ], [ 343796.499970747390762, 5421531.500015119090676 ], [ 343796.499970747390762, 5421530.500015119090676 ], [ 343796.499970747390762, 5421529.500015119090676 ], [ 343796.499970747390762, 5421528.500015119090676 ], [ 343796.499970747390762, 5421527.500015119090676 ], [ 343796.499970747390762, 5421526.500015119090676 ], [ 343796.499970747390762, 5421525.500015119090676 ], [ 343796.499970747390762, 5421524.500015119090676 ], [ 343795.499970747390762, 5421523.500015119090676 ], [ 343795.499970747390762, 5421522.500015119090676 ], [ 343795.499970747390762, 5421521.500015119090676 ], [ 343795.499970747390762, 5421520.500015119090676 ], [ 343795.499970747390762, 5421519.500015119090676 ], [ 343795.499970747390762, 5421518.500015119090676 ], [ 343795.499970747390762, 5421517.500015119090676 ], [ 343795.499970747390762, 5421516.500015119090676 ], [ 343795.499970747390762, 5421515.500015119090676 ], [ 343795.499970747390762, 5421514.500015119090676 ], [ 343794.499970747390762, 5421513.500015119090676 ], [ 343793.499970747390762, 5421512.500015119090676 ], [ 343792.499970747390762, 5421511.500015119090676 ], [ 343792.499970747390762, 5421510.500015119090676 ], [ 343791.499970747390762, 5421509.500015119090676 ], [ 343790.499970747390762, 5421508.500015119090676 ], [ 343789.499970747390762, 5421507.500015119090676 ], [ 343788.499970747390762, 5421506.500015119090676 ], [ 343787.499970747390762, 5421506.500015119090676 ], [ 343786.499970747390762, 5421505.500015119090676 ], [ 343786.499970747390762, 5421504.500015119090676 ] ] } },
{ "type": "Feature", "properties": { }, "geometry": { "type": "LineString", "coordinates": [ [ 343848.499970747390762, 5421521.500015119090676 ], [ 343847.499970747390762, 5421521.500015119090676 ], [ 343846.499970747390762, 5421521.500015119090676 ], [ 343845.499970747390762, 5421522.500015119090676 ], [ 343845.499970747390762, 5421523.500015119090676 ] ] } },
{ "type": "Feature", "properties": { }, "geometry": { "type": "LineString", "coordinates": [ [ 343817.499970747390762, 5421508.500015119090676 ], [ 343818.499970747390762, 5421509.500015119090676 ], [ 343819.499970747390762, 5421509.500015119090676 ], [ 343820.499970747390762, 5421509.500015119090676 ], [ 343821.499970747390762, 5421509.500015119090676 ], [ 343822.499970747390762, 5421508.500015119090676 ], [ 343823.499970747390762, 5421507.500015119090676 ], [ 343824.499970747390762, 5421507.500015119090676 ], [ 343825.499970747390762, 5421507.500015119090676 ], [ 343826.499970747390762, 5421507.500015119090676 ], [ 343827.499970747390762, 5421507.500015119090676 ], [ 343828.499970747390762, 5421507.500015119090676 ], [ 343829.499970747390762, 5421507.500015119090676 ], [ 343830.499970747390762, 5421507.500015119090676 ], [ 343831.499970747390762, 5421507.500015119090676 ], [ 343832.499970747390762, 5421508.500015119090676 ], [ 343833.499970747390762, 5421508.500015119090676 ], [ 343834.499970747390762, 5421508.500015119090676 ], [ 343835.499970747390762, 5421509.500015119090676 ], [ 343836.499970747390762, 5421509.500015119090676 ], [ 343837.499970747390762, 5421510.500015119090676 ] ] } }
]
}
